-32.903 299.216 SAAR 260900Z 16004KT CAVOK 09/07 Q1022
-34.559 301.584 SABE 260900Z 17006KT 130V230 CAVOK 14/10 Q1023 NOSIG
-31.324 295.792 SACO 260900Z 00000KT CAVOK 13/13 Q1022 NOSIG
-34.453 301.411 SADF 260900Z 18004KT CAVOK 13/11 Q1023
-32.832 291.207 SAME 260900Z 18005KT CAVOK 13/08 Q1022
-26.841 294.895 SANT 260900Z 15006KT 2500 -DZRA BR BKN003 OVC035 14/13 Q1022
-33.086 295.739 SAOC 260900Z 09004KT 9999 FEW030 BKN050 11/09 Q1023
-27.445 301.238 SARC 260900Z 14009KT CAVOK 16/12 Q1018
-27.450 300.944 SARE 260900Z 14010KT CAVOK 17/12 Q1017
-26.213 301.772 SARF 260900Z 16012KT CAVOK 19/14 Q1016
-25.738 305.527 SARI 260900Z 18004KT CAVOK 17/14 Q1015
-29.689 302.848 SARL 260900Z 14005KT CAVOK 14/11 Q1020
-27.386 304.029 SARP 260900Z 16005KT CAVOK 15/10 Q1018
-24.856 294.514 SASA 260900Z 36006KT 6000 DZ SCT008 OVC015 15/14 Q1020
-24.393 294.902 SASJ 260900Z 18008KT 3000 TSRA FEW007 BKN020 OVC050 16/16 Q1020
-45.785 292.534 SAVC 260900Z 00000KT CAVOK 09/07 Q1025
-53.778 292.251 SAWE 260900Z 32009KT 9999 -DZ BKN020 OVC050 06/05 Q1015
-51.609 290.688 SAWG 260900Z 32009KT 9999 FEW035 BKN200 09/01 Q1019
-54.843 291.704 SAWH 260900Z 23004KT 9999 SCT035 BKN070 07/01 Q1011
-37.934 302.427 SAZM 260900Z 21004KT 9999 SCT025 11/09 Q1025
-38.949 291.844 SAZN 260900Z 14002KT CAVOK 11/05 Q1024
-41.151 288.843 SAZS 260900Z 18004KT 9999 FEW034 05/01 Q1023
-22.875 316.616 SBAF 260900Z 28002KT 9999 FEW015 24/22 Q1014
-10.984 322.930 SBAR 260900Z 25003KT 9999 SCT017 26/23 Q1012
-21.141 309.575 SBAU 260900Z 19008KT CAVOK 22/15 Q1013
-1.379 311.524 SBBE 260900Z 12002KT 9999 FEW010 BKN100 24/23 Q1011
-19.852 316.050 SBBH 260900Z 00000KT CAVOK 18/16 Q1017
-21.267 316.239 SBBQ 260900Z 17001KT 0000 FG OVC001 15/14 Q1021
-15.863 312.088 SBB.R 260900Z 08005KT 9999 BKN009 BKN080 20/19 Q1017
2.846 299.310 SBBV 260900Z 09011KT CAVOK 26/19 Q1010
-25.000 306.499 SBCA 260900Z 00000KT CAVOK 19/16 Q1017
-19.634 316.031 SBCF 260900Z 14004KT CAVOK 18/16 Q1017
-20.469 305.328 SBCG 260900Z 16008KT CAVOK 19/17 Q1014
-27.134 307.344 SBCH 260900Z 09006KT CAVOK 15/11 Q1018
-29.946 308.856 SBCO 260900Z 00000KT 8000 FEW033 13/13 Q1018
-21.698 318.698 SBCP 260915Z 00000KT CAVOK 23/22 Q1014
-25.528 310.824 SBCT 260900Z 11009KT 7000 OVC005 17/17 Q1020
-15.653 303.883 SBCY 260900Z 23002KT CAVOK 28/25 Q1010
-7.600 287.231 SBCZ 260845Z 00000KT CAVOK 24/24 Q1009
-22.175 308.576 SBDN 260900Z 00000KT CAVOK 21/14 Q1014
-3.039 299.950 SBEG 260900Z 05006KT CAVOK 24/22 Q1010
-25.596 305.513 SBFI 260900Z 21004KT CAVOK 16/15 Q1015
-27.673 311.452 SBFL 260900Z 21003KT 9999 BKN020 22/17 Q1016
-3.855 327.577 SBFN 260900Z VRB02KT 9999 FEW020 24/24 Q1011
-3.776 321.468 SBFZ 260900Z 26003KT 9999 SCT023 24/23 Q1011
-22.809 316.756 SBGL 260900Z 08001KT 9999 SCT010 24/23 Q1013
-16.631 310.778 SBGO 260900Z 15005KT CAVOK 22/20 Q1015
-23.432 313.531 SBG.R 260900Z 00000KT CAVOK 16/16 Q1018
-14.816 320.967 SBIL 260900Z 26001KT 9999 FEW025 BKN100 25/25 Q1013
-5.531 312.540 SBIZ 260900Z 00000KT 9999 -RA FEW008 SCT015 BKN070 23/23 Q1011
-7.270 324.104 SBJP 260900Z 00000KT 9999 SCT016 24/23 Q1012
-26.225 311.203 SBJV 260900Z 20002KT 9999 OVC020 22/19 Q1017
-23.008 312.866 SBKP 260900Z 12010KT CAVOK 20/14 Q1016
-23.334 308.870 SBLO 260900Z 00000KT CAVOK 21/17 Q1015
-19.661 316.104 SBLS 260900Z 17008KT CAVOK 18/16 Q1017
-5.368 310.862 SBMA 260900Z 36003KT 9999 -RA SCT006 OVC100 24/24 Q1012
-23.440 308.093 SBMG 260900Z 14005KT CAVOK 19/17 Q1014
-16.707 316.181 SBMK 260900Z 00000KT 9999 FEW035 BKN100 22/21 Q1016
-3.146 300.014 SBMN 260900Z 05005KT CAVOK 25/23 Q1010
-9.510 324.207 SBMO 260900Z 25002KT 9999 SCT018 24/22 Q1012
0.051 308.928 SBMQ 260900Z 34003KT 9999 SCT015 OVC080 25/25 Q1011
-23.509 313.363 SBMT 260900Z 11002KT CAVOK 18/14 Q1017
-26.880 311.349 SBNF 260910Z 18006KT 9999 FEW005 BKN040 22/18 Q1016
-5.911 324.752 SBNT 260900Z 23002KT 9999 FEW023 FEW033TCU 25/23 Q1011
-29.994 308.829 SBPA 260900Z 30003KT CAVOK 15/13 Q1018
-9.364 319.436 SBP.L 260900Z 13003KT 9999 FEW025 23/22 Q1013
-8.709 296.098 SBPV 260900Z 19006KT 8000 OVC008 24/23 Q1010 RERA
-14.863 319.137 SBQV 260900Z 14006KT 9999 BKN003 21/20 Q1018
-9.869 292.106 SB.RB 260900Z 23001KT 3000 BR SCT002 23/23 Q1010
-8.126 325.077 SB.RF 260900Z VRB02KT 9999 SCT021 FEW025TCU 25/24 Q1011
-22.910 316.837 SB.RJ 260900Z 36004KT 9999 FEW015 25/23 Q1013
-21.134 312.226 SB.RP 260900Z 11005KT CAVOK 20/19 Q1015
-22.932 316.281 SBSC 260900Z 34005KT CAVOK 26/23 Q1013
-23.229 314.139 SBSJ 260900Z 00000KT 9000 FEW010 17/16 Q1017
-2.589 315.764 SBSL 260900Z 13003KT 9999 FEW017 SCT100 24/24 Q1011
-29.711 306.312 SBSM 260900Z 00000KT CAVOK 11/11 Q1018
-23.627 313.345 SBSP 260900Z 17003KT CAVOK 18/14 Q1018
-20.816 310.594 SBSR 260900Z 11001KT CAVOK 23/19 Q1014
-12.911 321.669 SBSV 260900Z 00000KT 9999 SCT017 BKN070 26/25 Q1012
-5.060 317.177 SBTE 260846Z 00000KT 9999 FEW006 SCT070 24/23 Q1011
-29.782 302.962 SBUG 260900Z 18004KT CAVOK 13/11 Q1020
-18.883 311.774 SBUL 260900Z 09006KT CAVOK 20/16 Q1017
-19.765 312.035 SBUR 260900Z 09004KT CAVOK 21/16 Q1016
-20.256 319.711 SBVT 260900Z 26003KT CAVOK 23/20 Q1012
-21.985 312.662 SBYS 260900Z 15002KT 9999 1200W R02/P2000 R20/P2000 BCFG NSC 16/16 Q1016
-18.348 289.661 SCAR 260900Z 07004KT CAVOK 17/11 Q1010
-45.916 288.311 SC.BA 260900Z AUTO 00000KT CAVOK M02/M04 Q1023
-22.499 291.096 SCCF 260900Z 12014KT CAVOK 10/01 Q1023
-53.003 289.145 SCCI 260900Z 28022KT 9999 SCT040 BKN100 09/04 Q1015 NOSIG
-20.535 289.819 SCDA 260900Z 09002KT CAVOK 18/13 Q1010
-33.393 289.214 SCEL 260900Z 00000KT CAVOK 10/07 Q1012 NOSIG
-23.444 289.555 SCFA 260900Z 04002KT 9999 FEW020 16/13 Q1011 NOSIG
-36.773 286.937 SCIE 260900Z VRB02KT CAVOK 09/09 Q1012
-27.165 250.578 SCIP 260900Z 09009KT 060V120 9999 FEW025 BKN050 22/19 Q1021 NOSIG
-29.916 288.809 SCSE 260900Z 28003KT 9999 OVC010 13/12 Q1012
-33.657 288.384 SCS.N 260900Z AUTO VRB02KT 9999 OVC005 11/10 Q1013
-41.439 286.906 SCT.E 260900Z VRB02KT 6000 2500N BR OVC003 06/05 Q1018 NOSIG
-42.933 287.301 SCT.N 260900Z AUTO VRB01KT //// R/////// // FEW004 04/04 Q1019
-39.650 286.914 SCVD 260900Z AUTO 19001KT 2900 FG VV001 03/03 Q1017
-2.158 280.116 SEGU 260900Z 31003KT 9999 BKN026 BKN100 26/24 Q1008 NOSIG RMK A2977
-0.907 281.384 SELT 260900Z 09002KT 9999 SCT013 BKN030 12/11 Q1028
-0.946 279.322 SEMT 260900Z 19004KT 9999 BKN020 23/21 Q1009 RMK A2980
-25.240 302.481 SGAS 260900Z 16006KT CAVOK 20/17 Q1015
10.889 285.219 SKBQ 260900Z 36004KT CAVOK 25/22 A2976
10.442 284.487 SKCG 260900Z 01009KT 9999 BKN017 SCT080 26/24 A2976
3.543 283.619 SKCL 260900Z 00000KT 9999 SCT040 SCT100 20/19 A2994
6.164 284.577 SKRG 260900Z VRB02KT 4000 BR BKN007 SCT070 15/15 A3022
12.583 278.289 SKSP 260900Z 05008KT 9999 FEW016 26/22 A2989
-17.421 293.823 SLC.B 260900Z 29006KT 7000 -RA FEW017 SCT025 OVC070 13/11 Q1025
-16.513 291.808 SLLP 260900Z 07004KT 4000E VCFG FEW002 SCT012 BKN070 06/05 Q1036
-11.010 293.927 SLRI 260900Z 00000KT 8000 VCSH SCT004 BKN017 OVC070 23/23 Q1010
-21.556 295.299 SLTJ 260900Z 00000KT 9999 SCT020 BKN070 16/15 Q1022
-14.819 295.082 SLTR 260900Z 00000KT 5000 BR FEW005 BKN080 24/23 Q1010
-17.645 296.865 SLVR 260900Z 19009KT 9999 SCT023 BKN070 24/22 Q1013
5.453 304.812 SMJP 260900Z VRB02KT CAVOK 23/22 Q1011 NOSIG
5.811 304.809 SMZO 260900Z 00000KT 9999 SCT010 24/23 Q1011 NOSIG
4.820 307.640 SOCA 260900Z AUTO 00000KT CAVOK 23/22 Q1011 NOSIG
-8.378 285.426 SPCL 260900Z 25002KT 9999 VCTS BKN015 BKN070 24/24 Q1009 RMK PP000
-6.787 280.172 SPHI 260900Z 18010KT 9999 SCT050 20/18 Q1009 RMK PP000
-3.785 286.691 SPQT 260900Z 30001KT 9999 FEW020 SCT100 24/23 Q1008 NOSIG RMK PP000
-16.341 288.417 SPQU 260900Z 01004KT CAVOK 12/05 Q1024 RMK PP000
-8.085 280.891 SPRU 260900Z 12004KT CAVOK 19/18 Q1009 RMK PP000
-13.745 283.780 SPSO 260900Z 17003KT 120V190 5000 FU NSC 19/17 Q1008 RMK PP000
-18.053 289.724 SPTN 260900Z 34003KT CAVOK 16/12 Q1011 RMK PP000
-13.536 288.061 SPZO 260900Z 36001KT 9000 -DZ FEW025 SCT036 BKN080 10/07 Q1031 RMK BIRD HAZARD RWY 28 PPTRZ
-34.855 304.906 SULS 260900Z 15012KT 6000 RA BKN010 OVC070 15/12 Q1021
-34.838 303.970 SUMU 260900Z 15011KT 9999 FEW020 BKN070 17/13 Q1021 TEMPO RADZ
-31.440 302.009 SUSO 260900 17005KT CAVOK 12/11 Q1020
10.913 296.034 SVMG 260900Z /////KT 9999 FEW010 25/24 Q1013 NOSIG
