[
{"Latitude": -31.87, "Longitude": 307.65, "icone": "./icones/icones-simbolicos/BR.png", "Informacao": "-31.87 307.65 SBPK 081800Z 06005KT 4000 -RA BR SCT010 OVC030 12/12 Q1016"},
{"Latitude": -31.35, "Longitude": 305.88, "icone": "./icones/icones-simbolicos/TS.png", "Informacao": "-31.35 305.88 SBBG 081800Z 03008KT 5000 -RA TS BKN006 OVC033 14/14 Q1013"}
]
