[
{"Latitude": -32.903, "Longitude": 299.216, "icone": "./icones/icones-visuais/SCT.png", "Informacao": "-32.903 299.216 SAAR 222000Z 05007KT 9999 SCT030 22/12 Q1016"},
{"Latitude": -34.559, "Longitude": 301.584, "icone": "./icones/icones-visuais/FEW.png", "Informacao": "-34.559 301.584 SABE 222000Z 01005KT 9999 FEW045 22/11 Q1017 NOSIG"},
{"Latitude": -31.324, "Longitude": 295.792, "icone": "./icones/icones-visuais/FEW.png", "Informacao": "-31.324 295.792 SACO 222000Z 05012KT 9999 FEW030 23/14 Q1016 NOSIG"},
{"Latitude": -34.453, "Longitude": 301.411, "icone": "./icones/icones-visuais/FEW.png", "Informacao": "-34.453 301.411 SADF 222000Z 05003KT 9999 FEW030 22/11 Q1017"},
{"Latitude": -32.832, "Longitude": 291.207, "icone": "./icones/icones-visuais/CAVOK.png", "Informacao": "-32.832 291.207 SAME 222000Z 14003KT CAVOK 26/09 Q1015"},
{"Latitude": -26.841, "Longitude": 294.895, "icone": "./icones/icones-visuais/BKN.png", "Informacao": "-26.841 294.895 SANT 222000Z 18004KT 9999 SCT025 BKN035 23/15 Q1016"},
{"Latitude": -33.086, "Longitude": 295.739, "icone": "./icones/icones-visuais/SCT.png", "Informacao": "-33.086 295.739 SAOC 222000Z 05006KT 9999 SCT040 23/11 Q1015"},
{"Latitude": -27.445, "Longitude": 301.238, "icone": "./icones/icones-visuais/CAVOK.png", "Informacao": "-27.445 301.238 SARC 222000Z 18005KT CAVOK 27/12 Q1015"},
{"Latitude": -27.450, "Longitude": 300.944, "icone": "./icones/icones-visuais/CAVOK.png", "Informacao": "-27.450 300.944 SARE 222000Z 17007KT CAVOK 26/12 Q1015"},
{"Latitude": -26.213, "Longitude": 301.772, "icone": "./icones/icones-visuais/CAVOK.png", "Informacao": "-26.213 301.772 SARF 222000Z 23006KT CAVOK 28/16 Q1014"},
{"Latitude": -25.738, "Longitude": 305.527, "icone": "./icones/icones-visuais/SCT.png", "Informacao": "-25.738 305.527 SARI 222000Z 05004KT 9999 SCT040 28/20 Q1014"},
{"Latitude": -29.689, "Longitude": 302.848, "icone": "./icones/icones-visuais/CAVOK.png", "Informacao": "-29.689 302.848 SARL 222000Z 14007KT CAVOK 25/11 Q1016"},
{"Latitude": -27.386, "Longitude": 304.029, "icone": "./icones/icones-visuais/CAVOK.png", "Informacao": "-27.386 304.029 SARP 222000Z 18006KT CAVOK 27/13 Q1015"},
{"Latitude": -24.856, "Longitude": 294.514, "icone": "./icones/icones-visuais/BKN.png", "Informacao": "-24.856 294.514 SASA 222000Z 36002KT 9999 SCT020 BKN030 19/11 Q1019"},
{"Latitude": -24.393, "Longitude": 294.902, "icone": "./icones/icones-visuais/BKN.png", "Informacao": "-24.393 294.902 SASJ 222000Z 05003KT 9999 FEW020 BKN080 19/15 Q1018"},
{"Latitude": -45.785, "Longitude": 292.534, "icone": "./icones/icones-visuais/SCT.png", "Informacao": "-45.785 292.534 SAVC 222000Z 09009KT 050V120 9999 SCT040 SCT200 19/09 Q1008"},
{"Latitude": -53.778, "Longitude": 292.251, "icone": "./icones/icones-visuais/SCT.png", "Informacao": "-53.778 292.251 SAWE 222000Z 05000KT 9999 FEW015 SCT020 11/09 Q1007"},
{"Latitude": -51.609, "Longitude": 290.688, "icone": "./icones/icones-visuais/CB.png", "Informacao": "-51.609 290.688 SAWG 222000Z 05004KT 9999 VCSH FEW035 FEW040CB SCT060 15/07 Q1006"},
{"Latitude": -54.843, "Longitude": 291.704, "icone": "./icones/icones-visuais/BKN.png", "Informacao": "-54.843 291.704 SAWH 222000Z 05005KT 9999 VCSH SCT008 BKN025 BKN080 09/07 Q1006"},
{"Latitude": -37.934, "Longitude": 302.427, "icone": "./icones/icones-visuais/TCU.png", "Informacao": "-37.934 302.427 SAZM 222000Z 02007KT 350V050 9999 SCT035 FEW045TCU 21/09 Q1017"},
{"Latitude": -38.949, "Longitude": 291.844, "icone": "./icones/icones-visuais/CAVOK.png", "Informacao": "-38.949 291.844 SAZN 222000Z 25007KT CAVOK 25/07 Q1012"},
{"Latitude": -41.151, "Longitude": 288.843, "icone": "./icones/icones-visuais/CAVOK.png", "Informacao": "-41.151 288.843 SAZS 222000Z 29020KT CAVOK 18/06 Q1015"},
{"Latitude": -8.348, "Longitude": 310.699, "icone": "./icones/icones-visuais/SCT.png", "Informacao": "-8.348 310.699 SBAA 222000Z 25005KT 9999 SCT015 SCT090 ///// Q1010"},
{"Latitude": -22.875, "Longitude": 316.616, "icone": "./icones/icones-visuais/BR.png", "Informacao": "-22.875 316.616 SBAF 222000Z 12004KT 4000 BR SCT020 OVC040 25/22 Q1017"},
{"Latitude": -21.812, "Longitude": 311.867, "icone": "./icones/icones-visuais/BKN.png", "Informacao": "-21.812 311.867 SBAQ 222000Z 12002KT 9999 SCT025 BKN040 27/20 Q1016"},
{"Latitude": -10.984, "Longitude": 322.930, "icone": "./icones/icones-visuais/BKN.png", "Informacao": "-10.984 322.930 SBAR 222000Z 11011KT 9999 SCT020 BKN100 29/24 Q1009"},
{"Latitude": -1.379, "Longitude": 311.524, "icone": "./icones/icones-visuais/TCU.png", "Informacao": "-1.379 311.524 SBBE 222000Z 34002KT 9999 BKN015 FEW023TCU OVC100 24/23 Q1011"},
{"Latitude": -31.390, "Longitude": 305.888, "icone": "./icones/icones-visuais/SCT.png", "Informacao": "-31.390 305.888 SBBG 222000Z 11005KT 9999 SCT040 25/09 Q1017"},
{"Latitude": -19.852, "Longitude": 316.050, "icone": "./icones/icones-visuais/OVC.png", "Informacao": "-19.852 316.050 SBBH 222000Z 12009KT 8000 SCT020 BKN033 OVC090 20/17 Q1016"},
{"Latitude": -25.405, "Longitude": 310.768, "icone": "./icones/icones-visuais/BKN.png", "Informacao": "-25.405 310.768 SBBI 222000Z 10009KT 9999 BKN013 18/15 Q1020"},
{"Latitude": -21.267, "Longitude": 316.239, "icone": "./icones/icones-visuais/BKN.png", "Informacao": "-21.267 316.239 SBBQ 222000Z 12005KT 9999 BKN015 18/15 Q1021"},
{"Latitude": -15.863, "Longitude": 312.088, "icone": "./icones/icones-visuais/VCTS.png", "Informacao": "-15.863 312.088 SBB.R 222000Z 04003KT 010V090 9999 VCTS BKN030 FEW040CB 21/19 Q1015"},
{"Latitude": -22.345, "Longitude": 310.946, "icone": "./icones/icones-visuais/SCT.png", "Informacao": "-22.345 310.946 SBBU 222000Z 09009KT 9999 SCT045 28/21 Q1015"},
{"Latitude": 2.846, "Longitude": 299.310, "icone": "./icones/icones-visuais/SCT.png", "Informacao": "2.846 299.310 SBBV 222000Z 09008KT 9999 SCT040 36/15 Q1008"},
{"Latitude": -15.861, "Longitude": 307.611, "icone": "./icones/icones-visuais/FEW.png", "Informacao": "-15.861 307.611 SBBW 222000Z 24002KT 9999 FEW020 33/23 Q1011"},
{"Latitude": -25.000, "Longitude": 306.499, "icone": "./icones/icones-visuais/SCT.png", "Informacao": "-25.000 306.499 SBCA 222000Z 25010KT 9999 SCT030 26/17 Q1017"},
{"Latitude": -9.334, "Longitude": 305.035, "icone": "./icones/icones-visuais/TCU.png", "Informacao": "-9.334 305.035 SBCC 222000Z 11004KT 9999 SCT035 FEW040TCU 25/21 Q1011"},
{"Latitude": -19.634, "Longitude": 316.031, "icone": "./icones/icones-visuais/BKN.png", "Informacao": "-19.634 316.031 SBCF 222000Z 14007KT 9999 FEW015 SCT023 BKN080 20/17 Q1017"},
{"Latitude": -20.469, "Longitude": 305.328, "icone": "./icones/icones-visuais/BKN.png", "Informacao": "-20.469 305.328 SBCG 222000Z 19006KT 160V230 9999 BKN040 29/19 Q1014"},
{"Latitude": -27.134, "Longitude": 307.344, "icone": "./icones/icones-visuais/TCU.png", "Informacao": "-27.134 307.344 SBCH 222000Z 00000KT 9999 FEW015 SCT025 FEW040TCU 22/19 Q1017"},
{"Latitude": -7.320, "Longitude": 312.541, "icone": "./icones/icones-visuais/CAVOK.png", "Informacao": "-7.320 312.541 SBCI 222000Z 30002KT CAVOK 28/24 Q1011"},
{"Latitude": -29.946, "Longitude": 308.856, "icone": "./icones/icones-visuais/TCU.png", "Informacao": "-29.946 308.856 SBCO 222000Z 11014KT 9999 SCT037 FEW040TCU 24/16 Q1016"},
{"Latitude": -21.698, "Longitude": 318.698, "icone": "./icones/icones-visuais/OVC.png", "Informacao": "-21.698 318.698 SBCP 222000Z 24006KT 9999 SCT010 OVC090 24/22 Q1015"},
{"Latitude": -19.012, "Longitude": 302.327, "icone": "./icones/icones-visuais/TCU.png", "Informacao": "-19.012 302.327 SBCR 222000Z 12002KT 9999 BKN035 FEW040TCU SCT100 31/21 Q1011"},
{"Latitude": -25.528, "Longitude": 310.824, "icone": "./icones/icones-visuais/BKN.png", "Informacao": "-25.528 310.824 SBCT 222000Z 13008KT 9999 VCSH BKN009 18/16 Q1020"},
{"Latitude": -29.197, "Longitude": 308.813, "icone": "./icones/icones-visuais/TCU.png", "Informacao": "-29.197 308.813 SBCX 222000Z /////KT 8000 VCSH SCT015 FEW040TCU BKN080 18/15 Q1019 RETS"},
{"Latitude": -15.653, "Longitude": 303.883, "icone": "./icones/icones-visuais/BKN.png", "Informacao": "-15.653 303.883 SBCY 222000Z 15008KT 9999 SCT020 BKN100 30/24 Q1012"},
{"Latitude": -7.600, "Longitude": 287.231, "icone": "./icones/icones-visuais/TS.png", "Informacao": "-7.600 287.231 SBCZ 222000Z 00000KT 9999 SCT015 BKN100 26/25 Q1009 RETS"},
{"Latitude": -22.175, "Longitude": 308.576, "icone": "./icones/icones-visuais/TCU.png", "Informacao": "-22.175 308.576 SBDN 222000Z 16007KT 9999 SCT035 FEW040TCU 29/17 Q1014"},
{"Latitude": -3.039, "Longitude": 299.950, "icone": "./icones/icones-visuais/TCU.png", "Informacao": "-3.039 299.950 SBEG 222000Z 09004KT 9999 VCSH SCT025 FEW030TCU BKN070 30/26 Q1009"},
{"Latitude": -6.233, "Longitude": 302.223, "icone": "./icones/icones-visuais/CAVOK.png", "Informacao": "-6.233 302.223 SBEK 222000Z 00000KT CAVOK ///// Q1009"},
{"Latitude": -25.596, "Longitude": 305.513, "icone": "./icones/icones-visuais/SCT.png", "Informacao": "-25.596 305.513 SBFI 222000Z 36002KT 9999 SCT035 28/21 Q1014"},
{"Latitude": -27.673, "Longitude": 311.452, "icone": "./icones/icones-visuais/BKN.png", "Informacao": "-27.673 311.452 SBFL 222000Z 16004KT 9999 VCSH SCT030 BKN060 20/18 Q1019"},
{"Latitude": -3.855, "Longitude": 327.577, "icone": "./icones/icones-visuais/TSRA.png", "Informacao": "-3.855 327.577 SBFN 222000Z 11005KT 5000 -TSRA BKN005 BKN012 FEW015CB 26/25 Q1011"},
{"Latitude": -3.776, "Longitude": 321.468, "icone": "./icones/icones-visuais/TCU.png", "Informacao": "-3.776 321.468 SBFZ 222000Z 34008KT 9999 SCT018 FEW020TCU 29/24 Q1010"},
{"Latitude": -22.809, "Longitude": 316.756, "icone": "./icones/icones-visuais/OVC.png", "Informacao": "-22.809 316.756 SBGL 222000Z 03003KT 9999 SCT015 BKN040 OVC080 23/20 Q1016"},
{"Latitude": -16.631, "Longitude": 310.778, "icone": "./icones/icones-visuais/TCU.png", "Informacao": "-16.631 310.778 SBGO 222000Z 25009KT 9999 VCSH FEW040 FEW045TCU 29/20 Q1013"},
{"Latitude": -23.432, "Longitude": 313.531, "icone": "./icones/icones-visuais/BKN.png", "Informacao": "-23.432 313.531 SBG.R 222000Z 09005KT 9999 BKN010 BKN015 19/18 Q1019"},
{"Latitude": -22.791, "Longitude": 314.795, "icone": "./icones/icones-visuais/DZ.png", "Informacao": "-22.791 314.795 SBGW 222000Z 01007KT 5000 -DZ SCT008 SCT013 OVC050 19/18 Q1018"},
{"Latitude": -3.254, "Longitude": 307.746, "icone": "./icones/icones-visuais/TCU.png", "Informacao": "-3.254 307.746 SBHT 222000Z 07013KT 9999 BKN025 FEW027TCU BKN100 28/24 Q1010"},
{"Latitude": -3.127, "Longitude": 301.519, "icone": "./icones/icones-visuais/TCU.png", "Informacao": "-3.127 301.519 SBIC 222000Z 34002KT 9999 FEW014 FEW025TCU 30/25 Q1009 RETS"},
{"Latitude": -14.816, "Longitude": 320.967, "icone": "./icones/icones-visuais/TCU.png", "Informacao": "-14.816 320.967 SBIL 222000Z 16009KT 8000 VCSH FEW010 SCT020 FEW030TCU BKN040 28/25 Q1010"},
{"Latitude": -19.471, "Longitude": 317.513, "icone": "./icones/icones-visuais/BKN.png", "Informacao": "-19.471 317.513 SBIP 222000Z 21007KT 9999 BKN035 25/21 Q1014"},
{"Latitude": -5.531, "Longitude": 312.540, "icone": "./icones/icones-visuais/TCU.png", "Informacao": "-5.531 312.540 SBIZ 222000Z 00000KT 9999 SCT012 FEW025TCU BKN080 27/26 Q1010"},
{"Latitude": -7.270, "Longitude": 324.104, "icone": "./icones/icones-visuais/FEW.png", "Informacao": "-7.270 324.104 SBJP 222000Z 02008KT 340V050 9999 FEW025 29/24 Q1011"},
{"Latitude": -26.225, "Longitude": 311.203, "icone": "./icones/icones-visuais/RA.png", "Informacao": "-26.225 311.203 SBJV 222000Z 13006KT 4000 -RA BKN005 BKN030 20/18 Q1018"},
{"Latitude": -23.008, "Longitude": 312.866, "icone": "./icones/icones-visuais/BKN.png", "Informacao": "-23.008 312.866 SBKP 222000Z 15014KT 9999 FEW020 BKN050 BKN070 23/17 Q1016"},
{"Latitude": -23.334, "Longitude": 308.870, "icone": "./icones/icones-visuais/SCT.png", "Informacao": "-23.334 308.870 SBLO 222000Z 12006KT 9999 SCT040 28/17 Q1015"},
{"Latitude": -19.661, "Longitude": 316.104, "icone": "./icones/icones-visuais/BKN.png", "Informacao": "-19.661 316.104 SBLS 222000Z 14014KT 9999 SCT019 SCT024 BKN100 20/16 Q1016"},
{"Latitude": -5.368, "Longitude": 310.862, "icone": "./icones/icones-visuais/TCU.png", "Informacao": "-5.368 310.862 SBMA 222000Z 19005KT 9999 FEW025TCU OVC080 25/25 Q1010"},
{"Latitude": -23.440, "Longitude": 308.093, "icone": "./icones/icones-visuais/SCT.png", "Informacao": "-23.440 308.093 SBMG 222000Z 19008KT 9999 SCT035 28/19 Q1014"},
{"Latitude": -16.707, "Longitude": 316.181, "icone": "./icones/icones-visuais/TS.png", "Informacao": "-16.707 316.181 SBMK 222000Z 21002KT 9999 FEW015 SCT020 22/22 Q1013 RETS"},
{"Latitude": -3.146, "Longitude": 300.014, "icone": "./icones/icones-visuais/TCU.png", "Informacao": "-3.146 300.014 SBMN 222000Z 12002KT 9999 VCSH SCT020 FEW025TCU SCT100 31/25 Q1009"},
{"Latitude": -9.510, "Longitude": 324.207, "icone": "./icones/icones-visuais/FEW.png", "Informacao": "-9.510 324.207 SBMO 222000Z 11011KT 9999 FEW030 30/22 Q1009"},
{"Latitude": 0.051, "Longitude": 308.928, "icone": "./icones/icones-visuais/OVC.png", "Informacao": "0.051 308.928 SBMQ 222000Z 05005KT 6000 SCT010 BKN015 OVC080 26/26 Q1011"},
{"Latitude": -5.202, "Longitude": 322.636, "icone": "./icones/icones-visuais/TCU.png", "Informacao": "-5.202 322.636 SBMS 222000Z 35007KT 9999 BKN020 FEW030TCU 31/25 Q1009"},
{"Latitude": -23.509, "Longitude": 313.363, "icone": "./icones/icones-visuais/BKN.png", "Informacao": "-23.509 313.363 SBMT 222000Z 12009KT 9999 BKN020 20/15 Q1018"},
{"Latitude": -5.811, "Longitude": 298.721, "icone": "./icones/icones-visuais/TCU.png", "Informacao": "-5.811 298.721 SBMY 222000Z 30003KT 9999 SCT022 FEW024TCU 33/22 Q1009"},
{"Latitude": -26.880, "Longitude": 311.349, "icone": "./icones/icones-visuais/OVC.png", "Informacao": "-26.880 311.349 SBNF 222000Z 01007KT 9999 FEW020 BKN030 OVC040 21/19 Q1018"},
{"Latitude": -28.282, "Longitude": 305.831, "icone": "./icones/icones-visuais/SCT.png", "Informacao": "-28.282 305.831 SBNM 222000Z 27016KT 9999 FEW030 SCT070 27/15 Q1015"},
{"Latitude": -5.911, "Longitude": 324.752, "icone": "./icones/icones-visuais/TCU.png", "Informacao": "-5.911 324.752 SBNT 222000Z 06007KT 9999 FEW025 FEW035TCU 30/24 Q1010"},
{"Latitude": 3.855, "Longitude": 308.203, "icone": "./icones/icones-visuais/TCU.png", "Informacao": "3.855 308.203 SBOI 222000Z 03009KT 9999 SCT030 FEW035TCU 30/22 Q1011"},
{"Latitude": -29.994, "Longitude": 308.829, "icone": "./icones/icones-visuais/TCU.png", "Informacao": "-29.994 308.829 SBPA 222000Z 11013KT 070V140 9999 SCT030 FEW035TCU BKN070 25/17 Q1016"},
{"Latitude": -2.894, "Longitude": 318.268, "icone": "./icones/icones-visuais/BKN.png", "Informacao": "-2.894 318.268 SBPB 222000Z 05007KT 9999 SCT015 BKN100 29/20 Q1010"},
{"Latitude": -21.843, "Longitude": 313.432, "icone": "./icones/icones-visuais/OVC.png", "Informacao": "-21.843 313.432 SBPC 222000Z 14002KT 9999 OVC010 19/19 Q1019"},
{"Latitude": -28.244, "Longitude": 307.674, "icone": "./icones/icones-visuais/TCU.png", "Informacao": "-28.244 307.674 SBPF 222000Z 12008KT 9999 SCT015 FEW040TCU SCT045 21/16 Q1017"},
{"Latitude": -31.718, "Longitude": 307.673, "icone": "./icones/icones-visuais/SCT.png", "Informacao": "-31.718 307.673 SBPK 222000Z 11003KT 9999 SCT045 23/14 Q1017"},
{"Latitude": -9.364, "Longitude": 319.436, "icone": "./icones/icones-visuais/TCU.png", "Informacao": "-9.364 319.436 SBP.L 222000Z 04009KT 9999 SCT025 FEW030TCU SCT070 32/20 Q1010"},
{"Latitude": -22.549, "Longitude": 304.298, "icone": "./icones/icones-visuais/TCU.png", "Informacao": "-22.549 304.298 SBPP 222000Z 18004KT 9999 SCT025 FEW030TCU 26/18 Q1016"},
{"Latitude": -8.709, "Longitude": 296.098, "icone": "./icones/icones-visuais/TCU.png", "Informacao": "-8.709 296.098 SBPV 222000Z 03005KT 9999 VCSH SCT035 FEW040TCU SCT100 32/28 Q1008"},
{"Latitude": -14.863, "Longitude": 319.137, "icone": "./icones/icones-visuais/BKN.png", "Informacao": "-14.863 319.137 SBQV 222000Z 16013KT 9999 BKN007 21/20 Q1016"},
{"Latitude": -9.869, "Longitude": 292.106, "icone": "./icones/icones-visuais/TCU.png", "Informacao": "-9.869 292.106 SB.RB 222000Z 08005KT 040V130 9999 SCT020 SCT035 FEW040TCU 28/25 Q1010"},
{"Latitude": -8.126, "Longitude": 325.077, "icone": "./icones/icones-visuais/FEW.png", "Informacao": "-8.126 325.077 SB.RF 222000Z 07007KT 030V120 9999 FEW023 29/25 Q1009"},
{"Latitude": -22.910, "Longitude": 316.837, "icone": "./icones/icones-visuais/BKN.png", "Informacao": "-22.910 316.837 SB.RJ 222000Z 03006KT 9999 FEW015 SCT030 BKN090 24/21 Q1016"},
{"Latitude": -21.134, "Longitude": 312.226, "icone": "./icones/icones-visuais/BKN.png", "Informacao": "-21.134 312.226 SB.RP 222000Z 12009KT 9999 BKN045 26/18 Q1014"},
{"Latitude": -22.932, "Longitude": 316.281, "icone": "./icones/icones-visuais/OVC.png", "Informacao": "-22.932 316.281 SBSC 222000Z 02006KT 9999 BKN025 OVC070 23/20 Q1016"},
{"Latitude": -23.229, "Longitude": 314.139, "icone": "./icones/icones-visuais/BR.png", "Informacao": "-23.229 314.139 SBSJ 222000Z 10005KT 3000 BR BKN015 19/19 Q1018"},
{"Latitude": -2.589, "Longitude": 315.764, "icone": "./icones/icones-visuais/BKN.png", "Informacao": "-2.589 315.764 SBSL 222000Z 03007KT 9999 BKN017 27/24 Q1010"},
{"Latitude": -29.711, "Longitude": 306.312, "icone": "./icones/icones-visuais/FEW.png", "Informacao": "-29.711 306.312 SBSM 222000Z 09007KT 060V120 9999 FEW040 25/16 Q1015"},
{"Latitude": -23.627, "Longitude": 313.345, "icone": "./icones/icones-visuais/OVC.png", "Informacao": "-23.627 313.345 SBSP 222000Z 13009KT 9999 BKN019 OVC021 20/16 Q1019"},
{"Latitude": -20.816, "Longitude": 310.594, "icone": "./icones/icones-visuais/BKN.png", "Informacao": "-20.816 310.594 SBSR 222000Z 21006KT 9999 FEW030 BKN045 26/19 Q1014"},
{"Latitude": -12.911, "Longitude": 321.669, "icone": "./icones/icones-visuais/BKN.png", "Informacao": "-12.911 321.669 SBSV 222000Z 08005KT 050V130 9999 VCSH SCT017 BKN070 28/25 Q1009"},
{"Latitude": -5.060, "Longitude": 317.177, "icone": "./icones/icones-visuais/TCU.png", "Informacao": "-5.060 317.177 SBTE 222000Z 03004KT 9999 SCT040TCU SCT090 32/23 Q1009"},
{"Latitude": -3.383, "Longitude": 295.276, "icone": "./icones/icones-visuais/SCT.png", "Informacao": "-3.383 295.276 SBTF 222000Z 06006KT 9999 SCT020 SCT100 32/25 Q1008"},
{"Latitude": -4.256, "Longitude": 290.064, "icone": "./icones/icones-visuais/FEW.png", "Informacao": "-4.256 290.064 SBTT 222000Z 20006KT 9999 FEW020 31/24 Q1007"},
{"Latitude": -3.785, "Longitude": 310.281, "icone": "./icones/icones-visuais/TCU.png", "Informacao": "-3.785 310.281 SBTU 222000Z /////KT 9999 FEW020 FEW025TCU SCT100 ///// Q1012"},
{"Latitude": -0.148, "Longitude": 293.014, "icone": "./icones/icones-visuais/SCT.png", "Informacao": "-0.148 293.014 SBUA 222000Z 16005KT 9999 SCT030 31/24 Q1007"},
{"Latitude": -29.782, "Longitude": 302.962, "icone": "./icones/icones-visuais/CAVOK.png", "Informacao": "-29.782 302.962 SBUG 222000Z VRB04KT CAVOK 25/10 Q1016"},
{"Latitude": -18.883, "Longitude": 311.774, "icone": "./icones/icones-visuais/TCU.png", "Informacao": "-18.883 311.774 SBUL 222000Z 19010KT 9999 -RA FEW007 SCT030 SCT048TCU 22/20 Q1015 RETS"},
{"Latitude": -19.765, "Longitude": 312.035, "icone": "./icones/icones-visuais/RA.png", "Informacao": "-19.765 312.035 SBUR 222000Z 23007KT 9999 -RA SCT004 BKN023 BKN100 22/21 Q1015"},
{"Latitude": -12.694, "Longitude": 299.902, "icone": "./icones/icones-visuais/TCU.png", "Informacao": "-12.694 299.902 SBVH 222000Z 14003KT 080V180 9999 BKN025 FEW030TCU SCT070 27/24 Q1013"},
{"Latitude": -20.256, "Longitude": 319.711, "icone": "./icones/icones-visuais/RA.png", "Informacao": "-20.256 319.711 SBVT 222000Z 20015KT 4000 -RA BR BKN010 OVC040 24/22 Q1014"},
{"Latitude": -21.985, "Longitude": 312.662, "icone": "./icones/icones-visuais/BKN.png", "Informacao": "-21.985 312.662 SBYS 222000Z 08006KT 9999 SCT025 BKN040 21/19 Q1015"},
{"Latitude": -18.348, "Longitude": 289.661, "icone": "./icones/icones-visuais/CAVOK.png", "Informacao": "-18.348 289.661 SCAR 222000Z 21010KT 180V240 CAVOK 23/13 Q1012"},
{"Latitude": -45.916, "Longitude": 288.311, "icone": "./icones/icones-visuais/SHRA.png", "Informacao": "-45.916 288.311 SC.BA 222000Z 31012KT 9999 -SHRA BKN040 OVC050 12/09 Q1009"},
{"Latitude": -22.499, "Longitude": 291.096, "icone": "./icones/icones-visuais/CAVOK.png", "Informacao": "-22.499 291.096 SCCF 222000Z 28023KT CAVOK 24/M07 Q1024"},
{"Latitude": -36.583, "Longitude": 287.968, "icone": "./icones/icones-visuais/CAVOK.png", "Informacao": "-36.583 287.968 SCCH 222000Z 20013KT CAVOK 27/10 Q1013"},
{"Latitude": -53.003, "Longitude": 289.145, "icone": "./icones/icones-visuais/SCT.png", "Informacao": "-53.003 289.145 SCCI 222000Z 26010KT 9999 FEW035 SCT089 15/04 Q1006 NOSIG"},
{"Latitude": -45.594, "Longitude": 287.894, "icone": "./icones/icones-visuais/SHRA.png", "Informacao": "-45.594 287.894 SCCY 222000Z 22005KT 180V270 9999 -SHRA SCT015 OVC030 13/11 Q1009"},
{"Latitude": -20.535, "Longitude": 289.819, "icone": "./icones/icones-visuais/CAVOK.png", "Informacao": "-20.535 289.819 SCDA 222000Z 21011KT CAVOK 24/15 Q1012"},
{"Latitude": -33.393, "Longitude": 289.214, "icone": "./icones/icones-visuais/CAVOK.png", "Informacao": "-33.393 289.214 SCEL 222000Z 17011KT CAVOK 31/03 Q1012 NOSIG"},
{"Latitude": -23.444, "Longitude": 289.555, "icone": "./icones/icones-visuais/FEW.png", "Informacao": "-23.444 289.555 SCFA 222000Z 19010KT 9999 FEW020 21/13 Q1013 NOSIG"},
{"Latitude": -37.402, "Longitude": 287.574, "icone": "./icones/icones-visuais/CAVOK.png", "Informacao": "-37.402 287.574 SCGE 222000Z 19012KT CAVOK 26/12 Q1016"},
{"Latitude": -34.967, "Longitude": 288.783, "icone": "./icones/icones-visuais/CAVOK.png", "Informacao": "-34.967 288.783 SCIC 222000Z 19009KT CAVOK 27/09 Q1012"},
{"Latitude": -36.773, "Longitude": 286.937, "icone": "./icones/icones-visuais/CAVOK.png", "Informacao": "-36.773 286.937 SCIE 222000Z 23018KT CAVOK 20/13 Q1015"},
{"Latitude": -27.165, "Longitude": 250.578, "icone": "./icones/icones-visuais/BKN.png", "Informacao": "-27.165 250.578 SCIP 222000Z 33012KT 9999 BKN020 27/22 Q1018 NOSIG"},
{"Latitude": -40.611, "Longitude": 286.940, "icone": "./icones/icones-visuais/SCT.png", "Informacao": "-40.611 286.940 SCJO 222000Z 32005KT 9999 SCT040 SCT080 20/10 Q1017"},
{"Latitude": -34.174, "Longitude": 289.224, "icone": "./icones/icones-visuais/CAVOK.png", "Informacao": "-34.174 289.224 SCRG 222000Z 18013KT CAVOK 28/07 Q1013"},
{"Latitude": -62.191, "Longitude": 301.013, "icone": "./icones/icones-visuais/SN.png", "Informacao": "-62.191 301.013 SCRM 222000Z 23015KT 9000 -SHSN SCT017 BKN035 01/M01 Q0999"},
{"Latitude": -29.916, "Longitude": 288.809, "icone": "./icones/icones-visuais/FEW.png", "Informacao": "-29.916 288.809 SCSE 222000Z 27013KT 9999 FEW015 17/12 Q1015"},
{"Latitude": -33.657, "Longitude": 288.384, "icone": "./icones/icones-visuais/CAVOK.png", "Informacao": "-33.657 288.384 SCS.N 222000Z 25014KT CAVOK 17/12 Q1013"},
{"Latitude": -33.456, "Longitude": 289.453, "icone": "./icones/icones-visuais/SCT.png", "Informacao": "-33.456 289.453 SCT.B 222000Z 24005KT CAVOK 31/04 Q1014"},
{"Latitude": -41.439, "Longitude": 286.906, "icone": "./icones/icones-visuais/BKN.png", "Informacao": "-41.439 286.906 SCT.E 222000Z 21005KT 9999 SCT020 BKN070 17/13 Q1017 NOSIG"},
{"Latitude": -42.933, "Longitude": 287.301, "icone": "./icones/icones-visuais/OVC.png", "Informacao": "-42.933 287.301 SCT.N 222000Z 36014KT 9999 SCT010 OVC020 14/12 Q1016"},
{"Latitude": -39.650, "Longitude": 286.914, "icone": "./icones/icones-visuais/SCT.png", "Informacao": "-39.650 286.914 SCVD 222000Z 25004KT 200V320 9999 FEW020 SCT040 20/12 Q1018"},
{"Latitude": -1.213, "Longitude": 281.426, "icone": "./icones/icones-visuais/OVC.png", "Informacao": "-1.213 281.426 SEAM 222000Z 18004KT 9999 SCT020 SCT030 OVC100 16/13 Q1028"},
{"Latitude": -0.463, "Longitude": 283.014, "icone": "./icones/icones-visuais/OVC.png", "Informacao": "-0.463 283.014 SECO 222000Z 35005KT 9999 BKN013 OVC100 24/23 Q1012 RMK A2989"},
{"Latitude": -2.889, "Longitude": 281.016, "icone": "./icones/icones-visuais/RA.png", "Informacao": "-2.889 281.016 SECU 222000Z 21007KT 9999 -RA BKN033 OVC070 14/14 Q1025"},
{"Latitude": -0.454, "Longitude": 269.734, "icone": "./icones/icones-visuais/FEW.png", "Informacao": "-0.454 269.734 SEG.S 222000Z 08008KT 9999 FEW020 29/23 Q1010 A2983"},
{"Latitude": -2.158, "Longitude": 280.116, "icone": "./icones/icones-visuais/BKN.png", "Informacao": "-2.158 280.116 SEGU 222000Z 06006KT 9999 FEW020 BKN200 31/24 Q1008 NOSIG RMK A2977"},
{"Latitude": -0.907, "Longitude": 281.384, "icone": "./icones/icones-visuais/RA.png", "Informacao": "-0.907 281.384 SELT 222000Z 13005KT 9999 3000N -RA FEW010 SCT023 OVC100 12/09 Q1029"},
{"Latitude": -2.299, "Longitude": 281.879, "icone": "./icones/icones-visuais/OVC.png", "Informacao": "-2.299 281.879 SEMC 222000Z 03010KT 9999 FEW026 OVC180 21/19 Q1016 RMK A3002"},
{"Latitude": -0.946, "Longitude": 279.322, "icone": "./icones/icones-visuais/FEW.png", "Informacao": "-0.946 279.322 SEMT 222000Z 21006KT 9999 FEW020 30/25 Q1009 RMK A2982"},
{"Latitude": -1.654, "Longitude": 281.344, "icone": "./icones/icones-visuais/RA.png", "Informacao": "-1.654 281.344 SERB 222000Z 03006KT 9999 -RA BKN030 OVC100 14/11 Q1028"},
{"Latitude": -3.435, "Longitude": 280.022, "icone": "./icones/icones-visuais/SCT.png", "Informacao": "-3.435 280.022 SERO 222000Z 33008KT 9999 FEW016 SCT200 32/24 Q1008"},
{"Latitude": -2.205, "Longitude": 279.011, "icone": "./icones/icones-visuais/CAVOK.png", "Informacao": "-2.205 279.011 SESA 222000Z 26012KT CAVOK 30/23 Q1008"},
{"Latitude": -0.910, "Longitude": 270.384, "icone": "./icones/icones-visuais/SCT.png", "Informacao": "-0.910 270.384 SEST 222000Z 32005KT 9999 SCT020 28/24 Q1008 RMK A2976"},
{"Latitude": 0.809, "Longitude": 282.292, "icone": "./icones/icones-visuais/RA.png", "Informacao": "0.809 282.292 SETU 222000Z 08005KT 6000 3000SW -RA FEW006 OVC020 12/11 Q1031"},
{"Latitude": -25.240, "Longitude": 302.481, "icone": "./icones/icones-visuais/CAVOK.png", "Informacao": "-25.240 302.481 SGAS 222000Z 21004KT 150V260 CAVOK 29/15 Q1014"},
{"Latitude": 4.454, "Longitude": 284.235, "icone": "./icones/icones-visuais/CB.png", "Informacao": "4.454 284.235 SKAR 222000Z 20008KT 170V230 9999 5000N TS SCT015CB BKN020 26/19 A2996 RMK CB VCSH/NW/N/NE"},
{"Latitude": 7.126, "Longitude": 286.815, "icone": "./icones/icones-visuais/SCT.png", "Informacao": "7.126 286.815 SKBG 222000Z 35006KT 9999 SCT012 SCT090 24/20 A2995 WS R35"},
{"Latitude": 4.701, "Longitude": 285.853, "icone": "./icones/icones-visuais/TCU.png", "Informacao": "4.701 285.853 SKBO 222000Z 22005KT 8000 VCSH SCT017TCU SCT070 18/12 A3026 RMK TCU VCSH/N"},
{"Latitude": 10.889, "Longitude": 285.219, "icone": "./icones/icones-visuais/HZ.png", "Informacao": "10.889 285.219 SKBQ 222000Z 34012KT 310V030 8000 OVC010 27/22 A2985 RMK HZ"},
{"Latitude": 7.928, "Longitude": 287.489, "icone": "./icones/icones-visuais/HZ.png", "Informacao": "7.928 287.489 SKCC 222000Z 02012KT 9000 4000W SCT017 30/21 A2987 RMK HZ"},
{"Latitude": 10.442, "Longitude": 284.487, "icone": "./icones/icones-visuais/BKN.png", "Informacao": "10.442 284.487 SKCG 222000Z 36021G31KT 9999 FEW015 BKN200 29/23 A2983"},
{"Latitude": 3.543, "Longitude": 283.619, "icone": "./icones/icones-visuais/BKN.png", "Informacao": "3.543 283.619 SKCL 222000Z VRB02KT 9000 VCSH FEW017 BKN100 24/20 A2997 RMK VCSH/N"},
{"Latitude": 7.024, "Longitude": 286.193, "icone": "./icones/icones-visuais/SCT.png", "Informacao": "7.024 286.193 SKEJ 222000Z VRB02KT 9999 SCT015 34/24 A2976"},
{"Latitude": 4.421, "Longitude": 284.867, "icone": "./icones/icones-visuais/BKN.png", "Informacao": "4.421 284.867 SKIB 222000Z 14003KT 9999 BKN030 SCT100 28/22 A3001"},
{"Latitude": 0.862, "Longitude": 282.328, "icone": "./icones/icones-visuais/RA.png", "Informacao": "0.862 282.328 SKIP 222000Z 04005KT 4000 DZ OVC016 12/11 A3040 RERA"},
{"Latitude": 7.812, "Longitude": 283.284, "icone": "./icones/icones-visuais/HZ.png", "Informacao": "7.812 283.284 SKLC 222000Z 33018G28KT 300V010 9000 FEW020 SCT300 29/22 A2984 RMK HZ"},
{"Latitude": 6.220, "Longitude": 284.409, "icone": "./icones/icones-visuais/TSRA.png", "Informacao": "6.220 284.409 SKMD 222000Z 18012KT 9000 -TSRA FEW035CB BKN100 23/17 A3005 RMK CB/SE/W"},
{"Latitude": 8.824, "Longitude": 284.174, "icone": "./icones/icones-visuais/BKN.png", "Informacao": "8.824 284.174 SKMR 222000Z 00000KT 9999 BKN020 30/23 A2981"},
{"Latitude": 5.030, "Longitude": 284.535, "icone": "./icones/icones-visuais/DZ.png", "Informacao": "5.030 284.535 SKMZ 222000Z /////KT 7000 DZ SCT005 BKN090 XX/XX A3028"},
{"Latitude": 2.950, "Longitude": 284.706, "icone": "./icones/icones-visuais/SCT.png", "Informacao": "2.950 284.706 SSK.N 222000Z 23005KT 180V280 9999 FEW020 SCT200 32/21 A2981"},
{"Latitude": 6.184, "Longitude": 292.507, "icone": "./icones/icones-visuais/HZ.png", "Informacao": "6.184 292.507 SKPC 222000Z 00000KT 8000 FEW023 37/22 A2970 HZ"},
{"Latitude": 4.813, "Longitude": 284.261, "icone": "./icones/icones-visuais/TSRA.png", "Informacao": "4.813 284.261 SKPE 222000Z 08009KT 9000 -TSRA SCT016CB SCT090 21/20 A3000 RMK CB SE/S"},
{"Latitude": 1.396, "Longitude": 282.709, "icone": "./icones/icones-visuais/DZ.png", "Informacao": "1.396 282.709 SKPS 222000Z 00000KT 9999 -DZ FEW020 OVC070 18/16 A3016"},
{"Latitude": 6.164, "Longitude": 284.577, "icone": "./icones/icones-visuais/TCU.png", "Informacao": "6.164 284.577 SKRG 222000Z 08006KT 9999 VCSH BKN016TCU SCT200 21/15 A3020 RMK TCU VCSH/S/N"},
{"Latitude": 11.526, "Longitude": 287.074, "icone": "./icones/icones-visuais/CAVOK.png", "Informacao": "11.526 287.074 SKRH 222000Z 01012KT CAVOK 28/23 A2984"},
{"Latitude": 11.119, "Longitude": 285.769, "icone": "./icones/icones-visuais/HZ.png", "Informacao": "11.119 285.769 SKSM 222000Z 02016KT 6000 SCT020 BKN200 29/23 A2984 RMK HZ"},
{"Latitude": 12.583, "Longitude": 278.289, "icone": "./icones/icones-visuais/SCT.png", "Informacao": "12.583 278.289 SKSP 222000Z 35012KT 330V050 9999 SCT014 SCT080 28/23 A2994"},
{"Latitude": 7.069, "Longitude": 289.263, "icone": "./icones/icones-visuais/SCT.png", "Informacao": "7.069 289.263 SKUC 222000Z 08004KT 9999 SCT020 37/17 A2979"},
{"Latitude": 5.691, "Longitude": 283.359, "icone": "./icones/icones-visuais/BKN.png", "Informacao": "5.691 283.359 SKUI 222000Z 32007KT 8000 VCSH BKN020 BKN080 29/25 A2978 RMK VCSH NE"},
{"Latitude": 10.435, "Longitude": 286.751, "icone": "./icones/icones-visuais/TCU.png", "Informacao": "10.435 286.751 SKVP 222000Z 06010KT 030V130 8000 BKN020TCU 36/19 A2981 RMK TCU/SE/SW HZ"},
{"Latitude": 4.168, "Longitude": 286.386, "icone": "./icones/icones-visuais/HZ.png", "Informacao": "4.168 286.386 SKVV 222000Z 03006KT 8000 SCT023 BKN090 29/21 A2986 RMK HZ"},
{"Latitude": -20.007, "Longitude": 296.473, "icone": "./icones/icones-visuais/OVC.png", "Informacao": "-20.007 296.473 SLCA 222000Z 00000KT 9999 OVC020 20/17 Q1018"},
{"Latitude": -17.421, "Longitude": 293.823, "icone": "./icones/icones-visuais/TCU.png", "Informacao": "-17.421 293.823 SLC.B 222000Z 24005KT 9999 FEW033 FEW036TCU 30/09 Q1019"},
{"Latitude": -11.040, "Longitude": 291.217, "icone": "./icones/icones-visuais/CB.png", "Informacao": "-11.040 291.217 SLCO 222000Z 00000KT 9999 SCT017 FEW020CB SCT080 28/25 Q1009"},
{"Latitude": -16.143, "Longitude": 297.974, "icone": "./icones/icones-visuais/OVC.png", "Informacao": "-16.143 297.974 SLCP 222000Z 18003KT 9999 BKN015 OVC070 26/21 Q1015"},
{"Latitude": -13.053, "Longitude": 295.338, "icone": "./icones/icones-visuais/SCT.png", "Informacao": "-13.053 295.338 SLJO 222000Z 14004KT 9999 SCT017 29/23 Q1009"},
{"Latitude": -16.513, "Longitude": 291.808, "icone": "./icones/icones-visuais/CB.png", "Informacao": "-16.513 291.808 SLLP 222000Z 03011KT 350V080 9999 SCT020 FEW023CB 15/00 Q1035"},
{"Latitude": -13.254, "Longitude": 295.937, "icone": "./icones/icones-visuais/BKN.png", "Informacao": "-13.254 295.937 SLMG 222000Z 14004KT 9999 FEW017 BKN200 29/23 Q1010"},
{"Latitude": -18.975, "Longitude": 302.179, "icone": "./icones/icones-visuais/SCT.png", "Informacao": "-18.975 302.179 SLPS 222000Z 00000KT 9999 SCT017 31/24 Q1013"},
{"Latitude": -18.328, "Longitude": 300.234, "icone": "./icones/icones-visuais/FEW.png", "Informacao": "-18.328 300.234 SLRB 222000Z 00000KT 9999 FEW017 30/23 Q1015"},
{"Latitude": -11.010, "Longitude": 293.927, "icone": "./icones/icones-visuais/CB.png", "Informacao": "-11.010 293.927 SLRI 222000Z 30004KT 9999 SCT017 FEW020CB BKN080 31/24 Q1009"},
{"Latitude": -14.428, "Longitude": 292.499, "icone": "./icones/icones-visuais/CB.png", "Informacao": "-14.428 292.499 SLRQ 222000Z 09007KT 9999 SCT017 FEW020CB BKN200 28/24 Q1011"},
{"Latitude": -14.306, "Longitude": 292.646, "icone": "./icones/icones-visuais/BKN.png", "Informacao": "-14.306 292.646 SLRY 222000Z 00000KT 9999 BKN017 BKN080 28/22 Q1011"},
{"Latitude": -13.762, "Longitude": 294.565, "icone": "./icones/icones-visuais/BKN.png", "Informacao": "-13.762 294.565 SLSA 222000Z 18008KT 9999 BKN015 BKN070 26/21 Q1011"},
{"Latitude": -16.384, "Longitude": 299.037, "icone": "./icones/icones-visuais/BKN.png", "Informacao": "-16.384 299.037 SLSI 222000Z 00000KT 9999 BKN015 28/19 Q1013"},
{"Latitude": -21.556, "Longitude": 295.299, "icone": "./icones/icones-visuais/TCU.png", "Informacao": "-21.556 295.299 SLTJ 222000Z 13006KT 9999 FEW027 FEW030TCU 24/14 Q1018"},
{"Latitude": -14.819, "Longitude": 295.082, "icone": "./icones/icones-visuais/BKN.png", "Informacao": "-14.819 295.082 SLTR 222000Z 00000KT 9999 BKN025 26/21 Q1011"},
{"Latitude": -17.645, "Longitude": 296.865, "icone": "./icones/icones-visuais/BKN.png", "Informacao": "-17.645 296.865 SLVR 222000Z 19007KT 9999 BKN017 BKN070 25/18 Q1014"},
{"Latitude": 5.453, "Longitude": 304.812, "icone": "./icones/icones-visuais/SCT.png", "Informacao": "5.453 304.812 SMJP 222000Z 06012KT 9999 SCT030 32/21 Q1011 NOSIG"},
{"Latitude": 5.811, "Longitude": 304.809, "icone": "./icones/icones-visuais/FEW.png", "Informacao": "5.811 304.809 SMZO 222000Z 06010KT 9999 FEW018 31/22 Q1011 NOSIG"},
{"Latitude": 4.820, "Longitude": 307.640, "icone": "./icones/icones-visuais/SHRA.png", "Informacao": "4.820 307.640 SOCA 222000Z AUTO 04012KT 9999 BKN027 BKN037 30/23 Q1012 TEMPO SHRA FEW012TCU"},
{"Latitude": -8.378, "Longitude": 285.426, "icone": "./icones/icones-visuais/BKN.png", "Informacao": "-8.378 285.426 SPCL 222000Z 14006KT 060V190 9999 BKN020 BKN080 30/24 Q1009 RMK BIRD HAZARD RWY 02/20 PP000"},
{"Latitude": -9.290, "Longitude": 283.994, "icone": "./icones/icones-visuais/SCT.png", "Informacao": "-9.290 283.994 SPGM 222000Z 36004KT 9999 SCT040 30/22 Q1011 RMK BIRD HAZARD RWY 19 PP000"},
{"Latitude": -6.787, "Longitude": 280.172, "icone": "./icones/icones-visuais/FEW.png", "Informacao": "-6.787 280.172 SPHI 222000Z 19019KT 9999 FEW016 29/18 Q1009 RMK BIRD HAZARD RWY 19/01 PP000"},
{"Latitude": -13.155, "Longitude": 285.796, "icone": "./icones/icones-visuais/BKN.png", "Informacao": "-13.155 285.796 SPHO 222000Z 03005KT 300V090 9999 VCSH FEW045 BKN090 21/09 Q1023 RMK SH NW/E PP000"},
{"Latitude": -7.169, "Longitude": 283.272, "icone": "./icones/icones-visuais/TCU.png", "Informacao": "-7.169 283.272 SPJI 222000Z 19005KT 9999 FEW020TCU BKN090 27/24 Q1017 RMK PP000"},
{"Latitude": -15.467, "Longitude": 289.842, "icone": "./icones/icones-visuais/SCT.png", "Informacao": "-15.467 289.842 SPJL 222000Z 12009KT 9999 SCT020 17/01 Q1032 RMK PP000"},
{"Latitude": -17.695, "Longitude": 288.656, "icone": "./icones/icones-visuais/CAVOK.png", "Informacao": "-17.695 288.656 SP.LO 222000Z 15009KT CAVOK 24/17 Q1012 RMK PP000"},
{"Latitude": -3.553, "Longitude": 279.619, "icone": "./icones/icones-visuais/SCT.png", "Informacao": "-3.553 279.619 SPME 222000Z 32007KT 9999 SCT015 30/23 Q1008 RMK BIRD HAZARD RWY 32/14 PP000"},
{"Latitude": -5.894, "Longitude": 283.882, "icone": "./icones/icones-visuais/RA.png", "Informacao": "-5.894 283.882 SPMS 222000Z 28003KT 9999 -RA SCT015 BKN090 25/24 Q1009 RMK BIRD HAZARD RWY09/27 PP000"},
{"Latitude": -3.785, "Longitude": 286.691, "icone": "./icones/icones-visuais/TSRA.png", "Informacao": "-3.785 286.691 SPQT 222000Z VRB02KT 4000 1000SW +TSRA BKN010 FEW020CB BKN100 24/23 Q1009 TEMPO 5000 RA RMK PP462"},
{"Latitude": -16.341, "Longitude": 288.417, "icone": "./icones/icones-visuais/BKN.png", "Informacao": "-16.341 288.417 SPQU 222000Z 26013KT 230V290 9999 FEW110 BKN230 19/07 Q1025 NOSIG RMK PP000"},
{"Latitude": -8.085, "Longitude": 280.891, "icone": "./icones/icones-visuais/SCT.png", "Informacao": "-8.085 280.891 SPRU 222000Z 15011KT 9999 SCT150 22/19 1010 RMK PP000"},
{"Latitude": -13.745, "Longitude": 283.780, "icone": "./icones/icones-visuais/CAVOK.png", "Informacao": "-13.745 283.780 SPSO 222000Z 22018KT CAVOK 25/18 Q1010 RMK BIRD HAZARD RWY 22/04 PP000"},
{"Latitude": -6.509, "Longitude": 283.627, "icone": "./icones/icones-visuais/SCT.png", "Informacao": "-6.509 283.627 SPST 222000Z 31004KT 9999 SCT020 33/24 Q1008 RMK BIRD HAZARD RWY 17/35 PP000"},
{"Latitude": -18.053, "Longitude": 289.724, "icone": "./icones/icones-visuais/CAVOK.png", "Informacao": "-18.053 289.724 SPTN 222000Z 22010KT 180V250 CAVOK 25/13 Q1014 RMK PP000"},
{"Latitude": -12.614, "Longitude": 290.771, "icone": "./icones/icones-visuais/OVC.png", "Informacao": "-12.614 290.771 SPTU 222000Z VRB02KT 9999 FEW020 OVC100 25/22 Q1010 RMK BIRD HAZARD RWY 01/19 PP000"},
{"Latitude": -4.576, "Longitude": 278.746, "icone": "./icones/icones-visuais/CAVOK.png", "Informacao": "-4.576 278.746 SPYL 222000Z /////KT CAVOK 29/20 Q1009 RMK BIRD HAZARD RWY 17/35 PP000"},
{"Latitude": -13.536, "Longitude": 288.061, "icone": "./icones/icones-visuais/TCU.png", "Informacao": "-13.536 288.061 SPZO 222000Z 01007KT 9999 FEW040TCU SCT050 BKN100 17/05 Q1029 NOSIG RMK BIRD HAZARD RWY 28 PP000"},
{"Latitude": -34.789, "Longitude": 303.736, "icone": "./icones/icones-visuais/SCT.png", "Informacao": "-34.789 303.736 SUAA 222000Z 16007KT 9999 FEW030 SCT200 21/13 Q1018"},
{"Latitude": -34.456, "Longitude": 302.229, "icone": "./icones/icones-visuais/FEW.png", "Informacao": "-34.456 302.229 SUCA 222000Z 20004KT 9999 FEW023 21/12 Q1017"},
{"Latitude": -33.359, "Longitude": 303.501, "icone": "./icones/icones-visuais/FEW.png", "Informacao": "-33.359 303.501 SUDU 222000Z 05007KT 9999 FEW026 22/08 Q1017"},
{"Latitude": -34.855, "Longitude": 304.906, "icone": "./icones/icones-visuais/TCU.png", "Informacao": "-34.855 304.906 SULS 222000Z 12010KT 9999 VCSH SCT026 FEW040TCU BKN200 19/14 Q1019"},
{"Latitude": -34.838, "Longitude": 303.970, "icone": "./icones/icones-visuais/SCT.png", "Informacao": "-34.838 303.970 SUMU 222000Z 15006KT 9999 FEW030 SCT080 21/11 Q1018 NOSIG"},
{"Latitude": 10.913, "Longitude": 296.034, "icone": "./icones/icones-visuais/FEW.png", "Informacao": "10.913 296.034 SVMG 222000Z /////KT 9999 FEW010 31/23 Q1011 NOSIG"},
{"Latitude": 10.603, "Longitude": 293.009, "icone": "./icones/icones-visuais/SCT.png", "Informacao": "10.603 293.009 SVMI 222000Z 09003KT 9999 SCT016 26/23 Q1010"} 
]