[
{"Latitude": SAAR, "Longitude": 011800Z, "icone": "./icones/icones-visuais/OVC.png", "Informacao": "SAAR 011800Z 14006KT 9999 FEW030 OVC100 22/12 Q1008"},
{"Latitude": SABE, "Longitude": 011800Z, "icone": "./icones/icones-visuais/SCT.png", "Informacao": "SABE 011800Z 12014KT 9999 SCT030 SCT100 19/11 Q1012"},
{"Latitude": SACO, "Longitude": 011800Z, "icone": "./icones/icones-visuais/FEW.png", "Informacao": "SACO 011800Z 02017KT 9999 FEW030 29/08 Q1007"},
{"Latitude": SAME, "Longitude": 011800Z, "icone": "./icones/icones-visuais/TCU.png", "Informacao": "SAME 011800Z 14012KT 9999 FEW045CB SCT050TCU 18/09 Q1010"},
{"Latitude": SAOC, "Longitude": 011800Z, "icone": "./icones/icones-visuais/CB.png", "Informacao": "SAOC 011800Z 36018KT 9999 FEW020 FEW030CB 27/09 Q1004"},
{"Latitude": SARC, "Longitude": 011800Z, "icone": "./icones/icones-visuais/SCT.png", "Informacao": "SARC 011800Z 02015KT 350V070 7000 FEW027 SCT100 31/19 Q1006"},
{"Latitude": SARE, "Longitude": 011800Z, "icone": "./icones/icones-visuais/BKN.png", "Informacao": "SARE 011800Z 05011KT 350V100 8000 BKN025 SCT060 006"},
{"Latitude": SARF, "Longitude": 011800Z, "icone": "./icones/icones-visuais/SCT.png", "Informacao": "SARF 011800Z 05014KT 9999 SCT030 33/20 Q1007"},
{"Latitude": SARI, "Longitude": 011800Z, "icone": "./icones/icones-visuais/FEW.png", "Informacao": "SARI 011800Z 05005KT 9999 FEW030 29/20 Q1012"},
{"Latitude": SARL, "Longitude": 011800Z, "icone": "./icones/icones-visuais/SCT.png", "Informacao": "SARL 011800Z 07008KT 9999 FEW020 SCT026 28/20 Q1009"},
{"Latitude": SARP, "Longitude": 011800Z, "icone": "./icones/icones-visuais/SCT.png", "Informacao": "SARP 011800Z 05008KT 9999 FEW020 SCT200 32/18 Q1010"},
{"Latitude": SASA, "Longitude": 011800Z, "icone": "./icones/icones-visuais/CAVOK.png", "Informacao": "SASA 011800Z 05007KT CAVOK 29/09 Q1007"},
{"Latitude": -22.910, "Longitude": 316.836, "icone": "./icones/icones-visuais/FEW.png", "Informacao": "-22.910 316.836 SASJ 011800Z 09010KT 9999 FEW012 30/14 Q1006"},
{"Latitude": SAVC, "Longitude": 011800Z, "icone": "./icones/icones-visuais/FEW.png", "Informacao": "SAVC 011800Z 16008KT 110V250 9999 FEW030 08/00 Q1027"},
{"Latitude": SAWE, "Longitude": 011800Z, "icone": "./icones/icones-visuais/CAVOK.png", "Informacao": "SAWE 011800Z 02012KT CAVOK 09/00 Q1023"},
{"Latitude": SAWG, "Longitude": 011800Z, "icone": "./icones/icones-visuais/SCT.png", "Informacao": "SAWG 011800Z 25002KT 9999 SCT045 09/M07 Q1025"},
{"Latitude": SAWH, "Longitude": 011800Z, "icone": "./icones/icones-visuais/FEW.png", "Informacao": "SAWH 011800Z 23014KT 9999 FEW040 07/M03 Q1022"},
{"Latitude": SAZM, "Longitude": 011800Z, "icone": "./icones/icones-visuais/RA.png", "Informacao": "SAZM 011800Z 02003KT 9000 -RA SCT050 OVC100 12/09 Q1015"},
{"Latitude": SAZN, "Longitude": 011800Z, "icone": "./icones/icones-visuais/BKN.png", "Informacao": "SAZN 011800Z 11015G26KT 9999 SCT045 BKN090 11/01 Q1018"},
{"Latitude": SAZS, "Longitude": 011800Z, "icone": "./icones/icones-visuais/BKN.png", "Informacao": "SAZS 011800Z 16017KT 9999 BKN045 BKN060 09/M02 Q1019"},
{"Latitude": -40.075, "Longitude": 288.862, "icone": "./icones/icones-visuais/RA.png", "Informacao": "-40.075 288.862 SAZY 011830Z 25007KT 9000 RA BKN010 SCT005 OVC015 12/11 Q1015"},
{"Latitude": -8.3483, "Longitude": 310.698, "icone": "./icones/icones-visuais/BKN.png", "Informacao": "-8.3483 310.698 SBAA 011800Z 06013KT 9999 BKN035 38/19 Q1007"},
{"Latitude": -22.875, "Longitude": 316.615, "icone": "./icones/icones-visuais/BKN.png", "Informacao": "-22.875 316.615 SBAF 011800Z 20010KT 6000 FEW020 BKN090 27/21 Q1014"},
{"Latitude": -10.983, "Longitude": 322.929, "icone": "./icones/icones-visuais/FEW.png", "Informacao": "-10.983 322.929 SBAR 011800Z 13010KT 9999 FEW017 28/22 Q1013"},
{"Latitude": -9.8658, "Longitude": 303.893, "icone": "./icones/icones-visuais/TCU.png", "Informacao": "-9.8658 303.893 SBAT 011800Z 03008KT 8000 FEW035 FEW040TCU 38/20 Q1007"},
{"Latitude": -1.3791, "Longitude": 311.523, "icone": "./icones/icones-visuais/TCU.png", "Informacao": "-1.3791 311.523 SBBE 011800Z 35010KT 9999 BKN035 FEW040TCU 29/24 Q1008"},
{"Latitude": -31.390, "Longitude": 305.887, "icone": "./icones/icones-visuais/FEW.png", "Informacao": "-31.390 305.887 SBBG 011800Z 07011KT 9999 FEW037 25/11 Q1012"},
{"Latitude": -19.851, "Longitude": 316.049, "icone": "./icones/icones-visuais/FEW.png", "Informacao": "-19.851 316.049 SBBH 011800Z 09007KT 9999 FEW040 33/12 Q1015"},
{"Latitude": -25405, "Longitude": 310.768, "icone": "./icones/icones-visuais/BKN.png", "Informacao": "-25405 310.768 SBBI 011800Z 07003KT 9999 SCT015 BKN025 21/16 Q1018"},
{"Latitude": -21.266, "Longitude": 316.239, "icone": "./icones/icones-visuais/SCT.png", "Informacao": "-21.266 316.239 SBBQ 011800Z 09008KT 9999 SCT040 27/16 Q1019"},
{"Latitude": -22.345, "Longitude": 310.946, "icone": "./icones/icones-visuais/CAVOK.png", "Informacao": "-22.345 310.946 SBBU 011800Z 14004KT CAVOK 29/22 Q1013"},
{"Latitude": -2.8461, "Longitude": 299.31, "icone": "./icones/icones-visuais/BKN.png", "Informacao": "-2.8461 299.31 SBBV 011800Z 13005KT 9999 SCT030 BKN100 33/19 Q1007"},
{"Latitude": -15.861, "Longitude": 307.611, "icone": "./icones/icones-visuais/SCT.png", "Informacao": "-15.861 307.611 SBBW 011800Z 12010KT 9999 SCT025 38/20 Q1009"},
{"Latitude": -25.000, "Longitude": 306.499, "icone": "./icones/icones-visuais/SCT.png", "Informacao": "-25.000 306.499 SBCA 011800Z 07015KT 9999 SCT040 26/16 Q1015"},
{"Latitude": -9.3338, "Longitude": 305.034, "icone": "./icones/icones-visuais/CB.png", "Informacao": "-9.3338 305.034 SBCC 011800Z 35004KT 5000 TS SCT020 FEW025CB SCT080 26/23 Q1009"},
{"Latitude": -19.633, "Longitude": 316.031, "icone": "./icones/icones-visuais/FEW.png", "Informacao": "-19.633 316.031 SBCF 011800Z 06007KT 9999 FEW045 31/12 Q1015"},
{"Latitude": -20.468, "Longitude": 305.327, "icone": "./icones/icones-visuais/FEW.png", "Informacao": "-20.468 305.327 SBCG 011800Z 33004KT 260V040 9999 FEW040 31/19 Q1012"},
{"Latitude": -27.134, "Longitude": 307.343, "icone": "./icones/icones-visuais/FEW.png", "Informacao": "-27.134 307.343 SBCH 011800Z 08006KT 9999 FEW035 29/19 Q1013"},
{"Latitude": -7.3202, "Longitude": 312.541, "icone": "./icones/icones-visuais/FEW.png", "Informacao": "-7.3202 312.541 SBCI 011800Z 08004KT 9999 FEW025 41/13 Q1007"},
{"Latitude": -28.725, "Longitude": 310.575, "icone": "./icones/icones-visuais/OVC.png", "Informacao": "-28.725 310.575 SBCM 011800Z 12005KT 9999 SCT015 BKN025 OVC100 20/16 Q1016"},
{"Latitude": -29.945, "Longitude": 308.855, "icone": "./icones/icones-visuais/BKN.png", "Informacao": "-29.945 308.855 SBCO 011800Z 15018KT 9999 BKN025 23/17 Q1014"},
{"Latitude": -21.698, "Longitude": 318.698, "icone": "./icones/icones-visuais/CAVOK.png", "Informacao": "-21.698 318.698 SBCP 011800Z 16014KT CAVOK 29/22 Q1013"},
{"Latitude": -19.011, "Longitude": 302.327, "icone": "./icones/icones-visuais/FEW.png", "Informacao": "-19.011 302.327 SBCR 011800Z 09008KT 9999 FEW020 32/22 Q1008"},
{"Latitude": -25.528, "Longitude": 310.824, "icone": "./icones/icones-visuais/BKN.png", "Informacao": "-25.528 310.824 SBCT 011800Z 10006KT 9999 BKN013 SCT017 21/16 Q1019"},
{"Latitude": -15.652, "Longitude": 303.883, "icone": "./icones/icones-visuais/CAVOK.png", "Informacao": "-15.652 303.883 SBCY 011800Z 23006KT CAVOK 35/18 Q0986"},
{"Latitude": -7.6, "Longitude": 287.230, "icone": "./icones/icones-visuais/BKN.png", "Informacao": "-7.6 287.230 SBCZ 011800Z 24003KT 9999 FEW025 BKN100 35/25 Q1010"},
{"Latitude": -22.175, "Longitude": 308.575, "icone": "./icones/icones-visuais/CAVOK.png", "Informacao": "-22.175 308.575 SBDN 011800Z 24005KT CAVOK 32/16 Q1012"},
{"Latitude": -3.0386, "Longitude": 299.950, "icone": "./icones/icones-visuais/TCU.png", "Informacao": "-3.0386 299.950 SBEG 011800Z 04011KT 9999 SCT020 FEW025TCU 35/20 Q1006"},
{"Latitude": -6.2330, "Longitude": 302.223, "icone": "./icones/icones-visuais/CAVOK.png", "Informacao": "-6.2330 302.223 SBEK 011800Z 30002KT CAVOK 25/24 Q1008"},
{"Latitude": -22.812, "Longitude": 317.907, "icone": "./icones/icones-visuais/SCT.png", "Informacao": "-22.812 317.907 SBES 011800Z 22009KT 9999 FEW015 SCT070 26/21 Q1014"},
{"Latitude": -25.596, "Longitude": 305.513, "icone": "./icones/icones-visuais/SCT.png", "Informacao": "-25.596 305.513 SBFI 011800Z 12008KT 9999 SCT030 30/20 Q1011"},
{"Latitude": -27.672, "Longitude": 311.452, "icone": "./icones/icones-visuais/BKN.png", "Informacao": "-27.672 311.452 SBFL 011800Z 00000KT 9999 BKN015 BKN040 21/17 Q1017"},
{"Latitude": -3.8547, "Longitude": 327.576, "icone": "./icones/icones-visuais/BR.png", "Informacao": "-3.8547 327.576 SBFN 011800Z 14014KT 110V180 5000 BR BKN011 SCT020 BKN070 25/22 Q1011"},
{"Latitude": -3.7761, "Longitude": 321.467, "icone": "./icones/icones-visuais/CAVOK.png", "Informacao": "-3.7761 321.467 SBFZ 011800Z 09017KT CAVOK 29/19 Q1010"},
{"Latitude": -22.808, "Longitude": 316.756, "icone": "./icones/icones-visuais/BKN.png", "Informacao": "-22.808 316.756 SBGL 011800Z 12007KT 7000 FEW030 BKN100 27/21 Q1014"},
{"Latitude": -10.786, "Longitude": 294.715, "icone": "./icones/icones-visuais/CAVOK.png", "Informacao": "-10.786 294.715 SBGM 011800Z 22005KT CAVOK 31/24 Q1009"},
{"Latitude": -16.631, "Longitude": 310.777, "icone": "./icones/icones-visuais/CAVOK.png", "Informacao": "-16.631 310.777 SBGO 011800Z 33005KT CAVOK 37/03 Q1012"},
{"Latitude": -23.432, "Longitude": 313.530, "icone": "./icones/icones-visuais/BKN.png", "Informacao": "-23.432 313.530 SBG.R 011800Z 11006KT 9999 BKN020 BKN030 25/20 Q1017"},
{"Latitude": -22.791, "Longitude": 314.795, "icone": "./icones/icones-visuais/BKN.png", "Informacao": "-22.791 314.795 SBGW 011800Z 03005KT 340V110 6000 BKN025 28/19 Q1015"},
{"Latitude": -3.2538, "Longitude": 307.746, "icone": "./icones/icones-visuais/BKN.png", "Informacao": "-3.2538 307.746 SBHT 011800Z 09009KT 9999 BKN033 36/23 Q1008"},
{"Latitude": -3.1272, "Longitude": 301.518, "icone": "./icones/icones-visuais/SCT.png", "Informacao": "-3.1272 301.518 SBIC 011800Z 07005KT 9999 SCT020 37/22 Q1007"},
{"Latitude": -14.815, "Longitude": 320.966, "icone": "./icones/icones-visuais/SCT.png", "Informacao": "-14.815 320.966 SBIL 011800Z 05007KT 9999 SCT025 29/23 Q1015"},
{"Latitude": -19.470, "Longitude": 317.512, "icone": "./icones/icones-visuais/FEW.png", "Informacao": "-19.470 317.512 SBIP 011800Z 01005KT 9999 FEW035 34/15 Q1012"},
{"Latitude": -5.5311, "Longitude": 312.54, "icone": "./icones/icones-visuais/SCT.png", "Informacao": "-5.5311 312.54 SBIZ 011800Z 08006KT 9999 SCT020 37/21 Q1008"},
{"Latitude": -21.791, "Longitude": 316.613, "icone": "./icones/icones-visuais/SCT.png", "Informacao": "-21.791 316.613 SBJF 011800Z 21003KT 9000 SCT020 26/20 Q1018"},
{"Latitude": -7.2697, "Longitude": 324.103, "icone": "./icones/icones-visuais/SCT.png", "Informacao": "-7.2697 324.103 SBJP 011800Z 13015KT 9999 SCT030 29/19 Q1012"},
{"Latitude": -26.224, "Longitude": 311.202, "icone": "./icones/icones-visuais/RA.png", "Informacao": "-26.224 311.202 SBJV 011800Z 19003KT 2500 -RA BKN003 BKN008 19/19 Q1017"},
{"Latitude": -23.008, "Longitude": 312.865, "icone": "./icones/icones-visuais/BKN.png", "Informacao": "-23.008 312.865 SBKP 011800Z 14007KT 9999 SCT045 BKN100 28/18 Q1014"},
{"Latitude": -23.333, "Longitude": 308.87, "icone": "./icones/icones-visuais/SCT.png", "Informacao": "-23.333 308.87 SBLO 011800Z 02005KT 9999 SCT025 30/18 Q1013"},
{"Latitude": -13.261, "Longitude": 316.591, "icone": "./icones/icones-visuais/CAVOK.png", "Informacao": "-13.261 316.591 SBLP 011800Z 01007KT CAVOK 38/06 Q1010"},
{"Latitude": -19.661, "Longitude": 316.103, "icone": "./icones/icones-visuais/SCT.png", "Informacao": "-19.661 316.103 SBLS 011800Z 14006KT 100V180 9999 SCT040 32/13 Q1015"},
{"Latitude": -5.3683, "Longitude": 310.862, "icone": "./icones/icones-visuais/SCT.png", "Informacao": "-5.3683 310.862 SBMA 011800Z 06007KT 9999 SCT025 35/21 Q1008"},
{"Latitude": -0.8897, "Longitude": 307.397, "icone": "./icones/icones-visuais/SCT.png", "Informacao": "-0.8897 307.397 SBMD 011800Z 08008KT 9999 SCT030 ///// Q1009"},
{"Latitude": -23.439, "Longitude": 308.093, "icone": "./icones/icones-visuais/FEW.png", "Informacao": "-23.439 308.093 SBMG 011800Z 01007KT 9999 FEW035 29/17 Q1012"},
{"Latitude": -16.706, "Longitude": 316.181, "icone": "./icones/icones-visuais/CAVOK.png", "Informacao": "-16.706 316.181 SBMK 011800Z 10011KT 070V150 CAVOK 36/03 Q1013"},
{"Latitude": -3.1455, "Longitude": 300.013, "icone": "./icones/icones-visuais/SCT.png", "Informacao": "-3.1455 300.013 SBMN 011800Z 12006KT 9999 SCT020 35/22 Q1006"},
{"Latitude": -9.5102, "Longitude": 324.206, "icone": "./icones/icones-visuais/BKN.png", "Informacao": "-9.5102 324.206 SBMO 011800Z 10010KT 9999 BKN020 BKN070 25/21 Q1014"},
{"Latitude": -5.2016, "Longitude": 322.635, "icone": "./icones/icones-visuais/SCT.png", "Informacao": "-5.2016 322.635 SBMS 011800Z 04015KT 9999 SCT030 34/22 Q1009"},
{"Latitude": -23.508, "Longitude": 313.362, "icone": "./icones/icones-visuais/BKN.png", "Informacao": "-23.508 313.362 SBMT 011800Z 14008KT 6000 BKN030 25/18 Q1016"},
{"Latitude": -5.8113, "Longitude": 298.721, "icone": "./icones/icones-visuais/TSRA.png", "Informacao": "-5.8113 298.721 SBMY 011800Z 09008KT 9999 -TSRA FEW020CB 24/23 Q1009"},
{"Latitude": -26.88, "Longitude": 311.348, "icone": "./icones/icones-visuais/DZ.png", "Informacao": "-26.88 311.348 SBNF 011800Z 17007KT 6000 -DZ SCT004 BKN012 20/18 Q1017"},
{"Latitude": -5.9111, "Longitude": 324.752, "icone": "./icones/icones-visuais/FEW.png", "Informacao": "-5.9111 324.752 SBNT 011800Z 13020KT 9999 FEW030 28/19 Q1011"},
{"Latitude": -3.8552, "Longitude": 308.203, "icone": "./icones/icones-visuais/SCT.png", "Informacao": "-3.8552 308.203 SBOI 011800Z 12005KT 9999 SCT030 33/20 Q1009"},
{"Latitude": -29.994, "Longitude": 308.828, "icone": "./icones/icones-visuais/BKN.png", "Informacao": "-29.994 308.828 SBPA 011800Z 13010KT 9999 BKN030 23/16 Q1014"},
{"Latitude": -2.8936, "Longitude": 318.268, "icone": "./icones/icones-visuais/FEW.png", "Informacao": "-2.8936 318.268 SBPB 011800Z 05019KT 9999 FEW020 32/23 Q1008"},
{"Latitude": -21.842, "Longitude": 313.432, "icone": "./icones/icones-visuais/CAVOK.png", "Informacao": "-21.842 313.432 SBPC 011800Z 02004KT CAVOK 26/14 Q1019"},
{"Latitude": -28.243, "Longitude": 307.673, "icone": "./icones/icones-visuais/FEW.png", "Informacao": "-28.243 307.673 SBPF 011800Z 05014KT 9999 FEW030 25/15 Q1015"},
{"Latitude": -31.718, "Longitude": 307.672, "icone": "./icones/icones-visuais/BKN.png", "Informacao": "-31.718 307.672 SBPK 011800Z 07018KT 9999 BKN025 20/13 Q1016"},
{"Latitude": -9.3638, "Longitude": 319.436, "icone": "./icones/icones-visuais/PL.png", "Informacao": "-9.3638 319.436 SBPL 011800Z 12007KT 9999 SCT030 35/12 Q1012"},
{"Latitude": -10.719, "Longitude": 311.600, "icone": "./icones/icones-visuais/CAVOK.png", "Informacao": "-10.719 311.600 SBPN 011800Z 33007KT CAVOK 38/11 Q1006"},
{"Latitude": -22.549, "Longitude": 304.297, "icone": "./icones/icones-visuais/FEW.png", "Informacao": "-22.549 304.297 SBPP 011800Z 36010KT 9999 FEW017 29/18 Q1012"},
{"Latitude": -8.7091, "Longitude": 296.097, "icone": "./icones/icones-visuais/TCU.png", "Informacao": "-8.7091 296.097 SBPV 011800Z 25006KT 9999 SCT024 FEW025TCU 35/20 Q1007"},
{"Latitude": -14.862, "Longitude": 319.136, "icone": "./icones/icones-visuais/BKN.png", "Informacao": "-14.862 319.136 SBQV 011800Z 05007KT 9999 BKN030 19/11 Q1018"},
{"Latitude": -22.932, "Longitude": 316.281, "icone": "./icones/icones-visuais/SCT.png", "Informacao": "-22.932 316.281 SBSC 011800Z 20012KT 9999 FEW020 SCT040 26/20 Q1014"},
{"Latitude": -23.229, "Longitude": 314.138, "icone": "./icones/icones-visuais/BKN.png", "Informacao": "-23.229 314.138 SBSJ 011800Z 10003KT 9999 BKN025 29/19 Q1016"},
{"Latitude": -2.5886, "Longitude": 315.763, "icone": "./icones/icones-visuais/FEW.png", "Informacao": "-2.5886 315.763 SBSL 011800Z 07018KT 9999 FEW017 31/18 Q1009"},
{"Latitude": -29.711, "Longitude": 306.311, "icone": "./icones/icones-visuais/FEW.png", "Informacao": "-29.711 306.311 SBSM 011800Z 12015KT 9999 FEW030 24/17 Q1012"},
{"Latitude": -23.626, "Longitude": 313.344, "icone": "./icones/icones-visuais/BKN.png", "Informacao": "-23.626 313.344 SBSP 011800Z 15013KT 9000 SCT008 BKN013 21/17 Q1018"},
{"Latitude": -20.816, "Longitude": 310.593, "icone": "./icones/icones-visuais/CAVOK.png", "Informacao": "-20.816 310.593 SBSR 011800Z 06003KT CAVOK 33/13 Q1014"},
{"Latitude": -23925, "Longitude": 313.712, "icone": "./icones/icones-visuais/BR.png", "Informacao": "-23925 313.712 SBST 011800Z 22003KT 4500 BR OVC007 22/19 Q1015"},
{"Latitude": -12.910, "Longitude": 321.669, "icone": "./icones/icones-visuais/FEW.png", "Informacao": "-12.910 321.669 SBSV 011800Z 09009KT 9999 FEW017 28/21 Q1014"},
{"Latitude": -5.0597, "Longitude": 317.176, "icone": "./icones/icones-visuais/FEW.png", "Informacao": "-5.0597 317.176 SBTE 011800Z 15005KT 9999 FEW040 39/11 Q1006"},
{"Latitude": -3.3827, "Longitude": 295.276, "icone": "./icones/icones-visuais/FEW.png", "Informacao": "-3.3827 295.276 SBTF 011800Z 01004KT 9999 FEW020 34/26 Q1007"},
{"Latitude": -8155, "Longitude": 289.216, "icone": "./icones/icones-visuais/TCU.png", "Informacao": "-8155 289.216 SBTK 011800Z 03003KT 9999 FEW040TCU 29/25 Q1011"},
{"Latitude": -4.2555, "Longitude": 290.064, "icone": "./icones/icones-visuais/SCT.png", "Informacao": "-4.2555 290.064 SBTT 011800Z 08002KT 9999 SCT020 ///// Q1007"},
{"Latitude": -37.85, "Longitude": 310.280, "icone": "./icones/icones-visuais/BKN.png", "Informacao": "-37.85 310.280 SBTU 011800Z /////KT 9999 BKN030 ///// Q1010"},
{"Latitude": -0.1483, "Longitude": 293.014, "icone": "./icones/icones-visuais/CB.png", "Informacao": "-0.1483 293.014 SBUA 011800Z 36007KT 9999 TS VCSH SCT020 FEW023CB 31/24 Q1007"},
{"Latitude": -9.4008, "Longitude": 321.749, "icone": "./icones/icones-visuais/FEW.png", "Informacao": "-9.4008 321.749 SBUF 011800Z 10013KT 9999 FEW021 34/14 Q1012"},
{"Latitude": -29.781, "Longitude": 302.961, "icone": "./icones/icones-visuais/SCT.png", "Informacao": "-29.781 302.961 SBUG 011800Z 03010KT 9999 SCT020 29/17 Q1009"},
{"Latitude": -18.882, "Longitude": 311.774, "icone": "./icones/icones-visuais/CAVOK.png", "Informacao": "-18.882 311.774 SBUL 011800Z 02008KT CAVOK 33/07 Q1015"},
{"Latitude": -12.694, "Longitude": 299.901, "icone": "./icones/icones-visuais/TCU.png", "Informacao": "-12.694 299.901 SBVH 011800Z 32007KT 9999 SCT020 FEW025TCU 32/17 Q1012"},
{"Latitude": -20.255, "Longitude": 319.711, "icone": "./icones/icones-visuais/CAVOK.png", "Informacao": "-20.255 319.711 SBVT 011800Z 05015KT CAVOK 28/20 Q1013"},
{"Latitude": -0.6075, "Longitude": 290.814, "icone": "./icones/icones-visuais/TCU.png", "Informacao": "-0.6075 290.814 SBYA 011800Z 35003KT 9999 SCT022 FEW025TCU 33/24 Q1006"},
{"Latitude": -21.985, "Longitude": 312.661, "icone": "./icones/icones-visuais/CAVOK.png", "Informacao": "-21.985 312.661 SBYS 011800Z 12004KT CAVOK 31/15 Q1014"},
{"Latitude": -43.615, "Longitude": 288.193, "icone": "./icones/icones-visuais/BKN.png", "Informacao": "-43.615 288.193 SCAP 011800Z 08011KT 9999 BKN035 12/M05 Q1027"},
{"Latitude": -18.348, "Longitude": 289.661, "icone": "./icones/icones-visuais/CAVOK.png", "Informacao": "-18.348 289.661 SCAR 011800Z 21011KT CAVOK 20/15 Q1013"},
{"Latitude": -45.915, "Longitude": 288.310, "icone": "./icones/icones-visuais/CB.png", "Informacao": "-45.915 288.310 SCBA 011800Z 08009KT 030V150 9999 FEW040 09/M08 Q1024"},
{"Latitude": -46.581, "Longitude": 288.302, "icone": "./icones/icones-visuais/CAVOK.png", "Informacao": "-46.581 288.302 SCCC 011800Z 35009KT CAVOK 07/M04 Q1027"},
{"Latitude": -22.498, "Longitude": 291.095, "icone": "./icones/icones-visuais/CAVOK.png", "Informacao": "-22.498 291.095 SCCF 011800Z 27021KT CAVOK 22/M15 Q1024"},
{"Latitude": -36.582, "Longitude": 287.968, "icone": "./icones/icones-visuais/RA.png", "Informacao": "-36.582 287.968 SCCH 011800Z 02016KT 9999 +RA BKN009 OVC043 12/11 Q1016"},
{"Latitude": -53.002, "Longitude": 289.145, "icone": "./icones/icones-visuais/CAVOK.png", "Informacao": "-53.002 289.145 SCCI 011800Z 26009KT CAVOK 08/M03 Q1024 NOSIG"},
{"Latitude": -45.594, "Longitude": 287.893, "icone": "./icones/icones-visuais/CAVOK.png", "Informacao": "-45.594 287.893 SCCY 011800Z 04012KT CAVOK 11/M09 Q1023"},
{"Latitude": -20.535, "Longitude": 289.818, "icone": "./icones/icones-visuais/FEW.png", "Informacao": "-20.535 289.818 SCDA 011800Z 23011KT 9999 FEW028 20/12 Q1014"},
{"Latitude": -33.392, "Longitude": 289.214, "icone": "./icones/icones-visuais/FEW.png", "Informacao": "-33.392 289.214 SCEL 011800Z 23007KT 190V270 9999 FEW060 16/07 Q1016 NOSIG"},
{"Latitude": -23.444, "Longitude": 289.555, "icone": "./icones/icones-visuais/FEW.png", "Informacao": "-23.444 289.555 SCFA 011800Z 19012KT 9999 FEW023 19/11 Q1014 NOSIG"},
{"Latitude": -53.253, "Longitude": 289.680, "icone": "./icones/icones-visuais/CAVOK.png", "Informacao": "-53.253 289.680 SCFM 011800Z 29007KT CAVOK 08/M05 Q1024"},
{"Latitude": -54.930, "Longitude": 292.373, "icone": "./icones/icones-visuais/SCT.png", "Informacao": "-54.930 292.373 SCGZ 011800Z 28015G25KT 230V310 9999 SCT053 07/M04 Q1022"},
{"Latitude": -34.966, "Longitude": 288.783, "icone": "./icones/icones-visuais/BKN.png", "Informacao": "-34.966 288.783 SCIC 011800Z 01010KT 9999 SCT020 BKN080 16/08 Q1015"},
{"Latitude": -36.772, "Longitude": 286.936, "icone": "./icones/icones-visuais/BKN.png", "Informacao": "-36.772 286.936 SCIE 011800Z 01017KT 9999 SCT015 BKN025 14/12 Q1015"},
{"Latitude": -27.164, "Longitude": 250.578, "icone": "./icones/icones-visuais/SCT.png", "Informacao": "-27.164 250.578 SCIP 011800Z 26010KT 9999 SCT020 22/18 Q1018 NOSIG"},
{"Latitude": -40.611, "Longitude": 286.939, "icone": "./icones/icones-visuais/BKN.png", "Informacao": "-40.611 286.939 SCJO 011800Z VRB02KT 9999 BKN025 SCT200 14/09 Q1015"},
{"Latitude": -34.173, "Longitude": 289.224, "icone": "./icones/icones-visuais/BKN.png", "Informacao": "-34.173 289.224 SCRG 011800Z 24003KT 9999 SCT060 BKN100 13/08 Q1015"},
{"Latitude": -62.190, "Longitude": 301.013, "icone": "./icones/icones-visuais/BKN.png", "Informacao": "-62.190 301.013 SCRM 011800Z 26022KT 9999 BKN010 M02/M03 Q0999"},
{"Latitude": -29.916, "Longitude": 288.808, "icone": "./icones/icones-visuais/SCT.png", "Informacao": "-29.916 288.808 SCSE 011800Z 29011KT 9999 SCT015 SCT100 18/12 Q1016"},
{"Latitude": -33.656, "Longitude": 288.384, "icone": "./icones/icones-visuais/SHRA.png", "Informacao": "-33.656 288.384 SCSN 011800Z 05006KT 9999 -SHRA BKN020 14/12 Q1017"},
{"Latitude": -33.456, "Longitude": 289.453, "icone": "./icones/icones-visuais/SCT.png", "Informacao": "-33.456 289.453 SCTB 011800Z 30003KT 9999 SCT060 16/08 Q1016"},
{"Latitude": -41.438, "Longitude": 286.906, "icone": "./icones/icones-visuais/BKN.png", "Informacao": "-41.438 286.906 SCTE 011800Z 16003KT 9999 BKN045 14/07 Q1015 NOSIG"},
{"Latitude": -42.933, "Longitude": 287.300, "icone": "./icones/icones-visuais/SCT.png", "Informacao": "-42.933 287.300 SCTN 011800Z 10010G21KT 020V140 CAVOK 16/01 Q1015"},
{"Latitude": -39.649, "Longitude": 286.913, "icone": "./icones/icones-visuais/OVC.png", "Informacao": "-39.649 286.913 SCVD 011800Z VRB02KT 9999 OVC011 13/10 Q1014"} 
]