[
{"Latitude": -32.903, "Longitude": 299.216, "icone": "./icones/icones-visuais/CAVOK.png", "Informacao": "-32.903 299.216 SAAR 240600Z 29004KT CAVOK 15/14 Q1014"},
{"Latitude": -34.559, "Longitude": 301.584, "icone": "./icones/icones-visuais/FEW.png", "Informacao": "-34.559 301.584 SABE 240600Z 31009KT 9999 FEW040 20/14 Q1012 NOSIG"},
{"Latitude": -31.324, "Longitude": 295.792, "icone": "./icones/icones-visuais/CAVOK.png", "Informacao": "-31.324 295.792 SACO 240600Z 19002KT CAVOK 16/15 Q1017 NOSIG"},
{"Latitude": -34.453, "Longitude": 301.411, "icone": "./icones/icones-visuais/CAVOK.png", "Informacao": "-34.453 301.411 SADF 240600Z 27003KT CAVOK 18/15 Q1012"},
{"Latitude": -32.832, "Longitude": 291.207, "icone": "./icones/icones-visuais/CAVOK.png", "Informacao": "-32.832 291.207 SAME 240600Z 18007KT CAVOK 21/08 Q1020"},
{"Latitude": -26.841, "Longitude": 294.895, "icone": "./icones/icones-visuais/CAVOK.png", "Informacao": "-26.841 294.895 SANT 240600Z 36005KT CAVOK 20/18 Q1014"},
{"Latitude": -33.086, "Longitude": 295.739, "icone": "./icones/icones-visuais/CAVOK.png", "Informacao": "-33.086 295.739 SAOC 240600Z 27007KT CAVOK 16/14 Q1017"},
{"Latitude": -27.445, "Longitude": 301.238, "icone": "./icones/icones-visuais/CAVOK.png", "Informacao": "-27.445 301.238 SARC 240600Z 00000KT CAVOK 17/14 Q1014"},
{"Latitude": -27.450, "Longitude": 300.944, "icone": "./icones/icones-visuais/CAVOK.png", "Informacao": "-27.450 300.944 SARE 240600Z 23004KT CAVOK 17/17 Q1014"},
{"Latitude": -26.213, "Longitude": 301.772, "icone": "./icones/icones-visuais/CAVOK.png", "Informacao": "-26.213 301.772 SARF 240600Z 20003KT CAVOK 20/18 Q1014"},
{"Latitude": -25.738, "Longitude": 305.527, "icone": "./icones/icones-visuais/CAVOK.png", "Informacao": "-25.738 305.527 SARI 240600Z 05004KT CAVOK 21/20 Q1015"},
{"Latitude": -29.689, "Longitude": 302.848, "icone": "./icones/icones-visuais/CAVOK.png", "Informacao": "-29.689 302.848 SARL 240600Z 18003KT CAVOK 16/15 Q1015"},
{"Latitude": -27.386, "Longitude": 304.029, "icone": "./icones/icones-visuais/CAVOK.png", "Informacao": "-27.386 304.029 SARP 240600Z 00000KT CAVOK 20/16 Q1015"},
{"Latitude": -24.856, "Longitude": 294.514, "icone": "./icones/icones-visuais/CAVOK.png", "Informacao": "-24.856 294.514 SASA 240600Z 23005KT CAVOK 13/12 Q1018"},
{"Latitude": -24.393, "Longitude": 294.902, "icone": "./icones/icones-visuais/CAVOK.png", "Informacao": "-24.393 294.902 SASJ 240600Z 29004KT CAVOK 13/13 Q1017"},
{"Latitude": -45.785, "Longitude": 292.534, "icone": "./icones/icones-visuais/BKN.png", "Informacao": "-45.785 292.534 SAVC 240600Z 00000KT 9999 BKN017 12/09 Q1023"},
{"Latitude": -53.778, "Longitude": 292.251, "icone": "./icones/icones-visuais/RA.png", "Informacao": "-53.778 292.251 SAWE 240600Z 34018KT 9999 -RA BKN012 OVC050 10/08 Q1016"},
{"Latitude": -51.609, "Longitude": 290.688, "icone": "./icones/icones-visuais/RA.png", "Informacao": "-51.609 290.688 SAWG 240600Z 36011KT 9999 -RA FEW020 OVC050 11/10 Q1016"},
{"Latitude": -54.843, "Longitude": 291.704, "icone": "./icones/icones-visuais/BKN.png", "Informacao": "-54.843 291.704 SAWH 240600Z 32006KT 9999 BKN040 BKN070 11/06 Q1013"},
{"Latitude": -37.934, "Longitude": 302.427, "icone": "./icones/icones-visuais/CAVOK.png", "Informacao": "-37.934 302.427 SAZM 240600Z 27008KT CAVOK 14/12 Q1009"},
{"Latitude": -41.151, "Longitude": 288.843, "icone": "./icones/icones-visuais/CAVOK.png", "Informacao": "-41.151 288.843 SAZS 240600Z 18006KT CAVOK 04/01 Q1024"},
{"Latitude": -10.984, "Longitude": 322.930, "icone": "./icones/icones-visuais/SCT.png", "Informacao": "-10.984 322.930 SBAR 240600Z 31002KT 9999 SCT016 26/24 Q1011"},
{"Latitude": -1.379, "Longitude": 311.524, "icone": "./icones/icones-visuais/BKN.png", "Informacao": "-1.379 311.524 SBBE 240600Z 09005KT 9999 FEW020 BKN100 23/23 Q1012"},
{"Latitude": -19.852, "Longitude": 316.050, "icone": "./icones/icones-visuais/CAVOK.png", "Informacao": "-19.852 316.050 SBBH 240600Z 10006KT CAVOK 21/17 Q1018"},
{"Latitude": -15.863, "Longitude": 312.088, "icone": "./icones/icones-visuais/BKN.png", "Informacao": "-15.863 312.088 SBB.R 240600Z 08007KT 9999 BKN010 BKN100 21/20 Q1017"},
{"Latitude": -22.345, "Longitude": 310.946, "icone": "./icones/icones-visuais/CAVOK.png", "Informacao": "-22.345 310.946 SBBU 240600Z 10010KT CAVOK 21/21 Q1017"},
{"Latitude": 2.846, "Longitude": 299.310, "icone": "./icones/icones-visuais/CAVOK.png", "Informacao": "2.846 299.310 SBBV 240600Z 09009KT CAVOK 28/18 Q1012"},
{"Latitude": -19.634, "Longitude": 316.031, "icone": "./icones/icones-visuais/CAVOK.png", "Informacao": "-19.634 316.031 SBCF 240600Z 13006KT CAVOK 19/17 Q1018"},
{"Latitude": -20.469, "Longitude": 305.328, "icone": "./icones/icones-visuais/CAVOK.png", "Informacao": "-20.469 305.328 SBCG 240600Z 10004KT CAVOK 22/18 Q1015"},
{"Latitude": -25.528, "Longitude": 310.824, "icone": "./icones/icones-visuais/BKN.png", "Informacao": "-25.528 310.824 SBCT 240600Z 06004KT 9999 BKN007 BKN015 17/16 Q1020"},
{"Latitude": -15.653, "Longitude": 303.883, "icone": "./icones/icones-visuais/CAVOK.png", "Informacao": "-15.653 303.883 SBCY 240600Z 30001KT CAVOK 28/25 Q1012"},
{"Latitude": -7.600, "Longitude": 287.231, "icone": "./icones/icones-visuais/OVC.png", "Informacao": "-7.600 287.231 SBCZ 240600Z 00000KT 9999 SCT008 OVC100 24/24 Q1014"},
{"Latitude": -22.175, "Longitude": 308.576, "icone": "./icones/icones-visuais/CAVOK.png", "Informacao": "-22.175 308.576 SBDN 240600Z 14003KT CAVOK 21/15 Q1015"},
{"Latitude": -3.039, "Longitude": 299.950, "icone": "./icones/icones-visuais/CAVOK.png", "Informacao": "-3.039 299.950 SBEG 240600Z 03003KT CAVOK 26/24 Q1011"},
{"Latitude": -25.596, "Longitude": 305.513, "icone": "./icones/icones-visuais/FG.png", "Informacao": "-25.596 305.513 SBFI 240600Z 14005KT 7000 2000SE BCFG NSC 21/21 Q1014"},
{"Latitude": -27.673, "Longitude": 311.452, "icone": "./icones/icones-visuais/FEW.png", "Informacao": "-27.673 311.452 SBFL 240600Z 30003KT 9999 FEW030 21/19 Q1015"},
{"Latitude": -3.776, "Longitude": 321.468, "icone": "./icones/icones-visuais/BKN.png", "Informacao": "-3.776 321.468 SBFZ 240600Z 27002KT 9999 BKN020 25/19 Q1012"},
{"Latitude": -22.809, "Longitude": 316.756, "icone": "./icones/icones-visuais/CAVOK.png", "Informacao": "-22.809 316.756 SBGL 240600Z 02002KT CAVOK 23/21 Q1014"},
{"Latitude": -16.631, "Longitude": 310.778, "icone": "./icones/icones-visuais/BKN.png", "Informacao": "-16.631 310.778 SBGO 240600Z 13003KT 9999 FEW017 BKN070 24/20 Q1016"},
{"Latitude": -23.432, "Longitude": 313.531, "icone": "./icones/icones-visuais/SCT.png", "Informacao": "-23.432 313.531 SBG.R 240600Z 00000KT 9999 SCT036 17/17 Q1019"},
{"Latitude": -14.816, "Longitude": 320.967, "icone": "./icones/icones-visuais/BKN.png", "Informacao": "-14.816 320.967 SBIL 240600Z 22002KT 9999 FEW020 BKN040 25/24 Q1011"},
{"Latitude": -5.531, "Longitude": 312.540, "icone": "./icones/icones-visuais/BKN.png", "Informacao": "-5.531 312.540 SBIZ 240600Z 00000KT 9999 SCT010 BKN100 25/25 Q1012"},
{"Latitude": -7.270, "Longitude": 324.104, "icone": "./icones/icones-visuais/SCT.png", "Informacao": "-7.270 324.104 SBJP 240600Z 28004KT 250V310 9999 SCT024 23/22 Q1013"},
{"Latitude": -23.008, "Longitude": 312.866, "icone": "./icones/icones-visuais/CAVOK.png", "Informacao": "-23.008 312.866 SBKP 240600Z 12010KT CAVOK 20/17 Q1017"},
{"Latitude": -23.334, "Longitude": 308.870, "icone": "./icones/icones-visuais/CAVOK.png", "Informacao": "-23.334 308.870 SBLO 240600Z 12001KT CAVOK 20/17 Q1017"},
{"Latitude": -5.368, "Longitude": 310.862, "icone": "./icones/icones-visuais/BKN.png", "Informacao": "-5.368 310.862 SBMA 240600Z 31006KT 9999 FEW005 SCT010 BKN080 25/24 Q1013"},
{"Latitude": -23.440, "Longitude": 308.093, "icone": "./icones/icones-visuais/CAVOK.png", "Informacao": "-23.440 308.093 SBMG 240600Z 00000KT CAVOK 22/16 Q1015"},
{"Latitude": -3.146, "Longitude": 300.014, "icone": "./icones/icones-visuais/CAVOK.png", "Informacao": "-3.146 300.014 SBMN 240600Z 08002KT CAVOK 27/25 Q1011"},
{"Latitude": -9.510, "Longitude": 324.207, "icone": "./icones/icones-visuais/CAVOK.png", "Informacao": "-9.510 324.207 SBMO 240600Z 07003KT CAVOK 25/23 Q1012"},
{"Latitude": 0.051, "Longitude": 308.928, "icone": "./icones/icones-visuais/BKN.png", "Informacao": "0.051 308.928 SBMQ 240600Z 29002KT 9999 FEW013 BKN080 25/25 Q1012"},
{"Latitude": -5.911, "Longitude": 324.752, "icone": "./icones/icones-visuais/SCT.png", "Informacao": "-5.911 324.752 SBNT 240600Z 25003KT 9999 SCT017 SCT080 26/24 Q1012"},
{"Latitude": -29.994, "Longitude": 308.829, "icone": "./icones/icones-visuais/CAVOK.png", "Informacao": "-29.994 308.829 SBPA 240600Z 08002KT CAVOK 18/15 Q1014"},
{"Latitude": -9.364, "Longitude": 319.436, "icone": "./icones/icones-visuais/BKN.png", "Informacao": "-9.364 319.436 SBP.L 240600Z 02003KT 9999 BKN023 BKN070 24/23 Q1014"},
{"Latitude": -8.709, "Longitude": 296.098, "icone": "./icones/icones-visuais/BKN.png", "Informacao": "-8.709 296.098 SBPV 240600Z 32001KT 9999 SCT002 BKN100 25/24 Q1012"},
{"Latitude": -9.869, "Longitude": 292.106, "icone": "./icones/icones-visuais/RA.png", "Informacao": "-9.869 292.106 SB.RB 240600Z 00000KT 8000 -RA SCT002 SCT020 24/24 Q1014"},
{"Latitude": -8.126, "Longitude": 325.077, "icone": "./icones/icones-visuais/SCT.png", "Informacao": "-8.126 325.077 SB.RF 240600Z 31002KT 9999 FEW022 SCT060 26/23 Q1012"},
{"Latitude": -22.910, "Longitude": 316.837, "icone": "./icones/icones-visuais/CAVOK.png", "Informacao": "-22.910 316.837 SB.RJ 240600Z 04004KT CAVOK 25/22 Q1014"},
{"Latitude": -21.134, "Longitude": 312.226, "icone": "./icones/icones-visuais/CAVOK.png", "Informacao": "-21.134 312.226 SB.RP 240600Z 12003KT CAVOK 20/19 Q1015"},
{"Latitude": -22.932, "Longitude": 316.281, "icone": "./icones/icones-visuais/SCT.png", "Informacao": "-22.932 316.281 SBSC 240600Z 36005KT 9999 FEW025 SCT100 24/22 Q1014"},
{"Latitude": -23.229, "Longitude": 314.139, "icone": "./icones/icones-visuais/BR.png", "Informacao": "-23.229 314.139 SBSJ 240600Z 27001KT 4000 BR BKN020 19/19 Q1018"},
{"Latitude": -2.589, "Longitude": 315.764, "icone": "./icones/icones-visuais/BKN.png", "Informacao": "-2.589 315.764 SBSL 240600Z 06003KT 9999 BKN013 25/24 Q1011"},
{"Latitude": -23.627, "Longitude": 313.345, "icone": "./icones/icones-visuais/FEW.png", "Informacao": "-23.627 313.345 SBSP 240600Z AUTO 14004KT 9999 FEW011 19/16 Q1019"},
{"Latitude": -20.816, "Longitude": 310.594, "icone": "./icones/icones-visuais/CAVOK.png", "Informacao": "-20.816 310.594 SBSR 240600Z 00000KT CAVOK 23/18 Q1015"},
{"Latitude": -12.911, "Longitude": 321.669, "icone": "./icones/icones-visuais/SCT.png", "Informacao": "-12.911 321.669 SBSV 240600Z 03006KT 9999 FEW020 SCT070 27/26 Q1012"},
{"Latitude": -5.060, "Longitude": 317.177, "icone": "./icones/icones-visuais/BKN.png", "Informacao": "-5.060 317.177 SBTE 240600Z 12004KT 9999 BKN010 26/24 Q1012"},
{"Latitude": -18.883, "Longitude": 311.774, "icone": "./icones/icones-visuais/CAVOK.png", "Informacao": "-18.883 311.774 SBUL 240600Z 10005KT CAVOK 20/18 Q1018"},
{"Latitude": -19.765, "Longitude": 312.035, "icone": "./icones/icones-visuais/CAVOK.png", "Informacao": "-19.765 312.035 SBUR 240600Z 04006KT CAVOK 21/17 Q1017"},
{"Latitude": -20.256, "Longitude": 319.711, "icone": "./icones/icones-visuais/RA.png", "Informacao": "-20.256 319.711 SBVT 240600Z 20006KT 9999 -RA SCT020 OVC050 24/23 Q1014"},
{"Latitude": -18.348, "Longitude": 289.661, "icone": "./icones/icones-visuais/CAVOK.png", "Informacao": "-18.348 289.661 SCAR 240600Z 03003KT CAVOK 19/13 Q1015"},
{"Latitude": -45.916, "Longitude": 288.311, "icone": "./icones/icones-visuais/CAVOK.png", "Informacao": "-45.916 288.311 SC.BA 240600Z AUTO 31012KT CAVOK 08/05 Q1022"},
{"Latitude": -22.499, "Longitude": 291.096, "icone": "./icones/icones-visuais/CAVOK.png", "Informacao": "-22.499 291.096 SCCF 240600Z 10012KT CAVOK 08/M03 Q1028"},
{"Latitude": -53.003, "Longitude": 289.145, "icone": "./icones/icones-visuais/BKN.png", "Informacao": "-53.003 289.145 SCCI 240600Z 29013KT 9999 FEW040 BKN120 11/08 Q1015 NOSIG"},
{"Latitude": -20.535, "Longitude": 289.819, "icone": "./icones/icones-visuais/CAVOK.png", "Informacao": "-20.535 289.819 SCDA 240600Z 17003KT CAVOK 20/14 Q1015"},
{"Latitude": -33.393, "Longitude": 289.214, "icone": "./icones/icones-visuais/CAVOK.png", "Informacao": "-33.393 289.214 SCEL 240600Z 00000KT CAVOK 17/07 Q1016 NOSIG"},
{"Latitude": -23.444, "Longitude": 289.555, "icone": "./icones/icones-visuais/CAVOK.png", "Informacao": "-23.444 289.555 SCFA 240600Z 02003KT CAVOK 18/12 Q1016 NOSIG"},
{"Latitude": -36.773, "Longitude": 286.937, "icone": "./icones/icones-visuais/CAVOK.png", "Informacao": "-36.773 286.937 SCIE 240600Z 23007KT CAVOK 11/09 Q1019"},
{"Latitude": -27.165, "Longitude": 250.578, "icone": "./icones/icones-visuais/BKN.png", "Informacao": "-27.165 250.578 SCIP 240600Z 12003KT 9999 FEW020 SCT050 BKN120 21/20 Q1022 NOSIG"},
{"Latitude": -62.191, "Longitude": 301.013, "icone": "./icones/icones-visuais/BKN.png", "Informacao": "-62.191 301.013 SCRM 240600Z 35012KT 9999 BKN020 00/M02 Q1015 NOSIG"},
{"Latitude": -29.916, "Longitude": 288.809, "icone": "./icones/icones-visuais/BKN.png", "Informacao": "-29.916 288.809 SCSE 240600Z 00000KT 9999 BKN008 12/10 Q1015"},
{"Latitude": -33.657, "Longitude": 288.384, "icone": "./icones/icones-visuais/CAVOK.png", "Informacao": "-33.657 288.384 SCS.N 240600Z AUTO VRB02KT CAVOK 09/08 Q1015"},
{"Latitude": -41.439, "Longitude": 286.906, "icone": "./icones/icones-visuais/SCT.png", "Informacao": "-41.439 286.906 SCT.E 240600Z 00000KT CAVOK 06/06 Q1024 NOSIG"},
{"Latitude": -42.933, "Longitude": 287.301, "icone": "./icones/icones-visuais/SCT.png", "Informacao": "-42.933 287.301 SCT.N 240600Z AUTO 14001KT //// R/////// // FEW011 10/09 Q1024"},
{"Latitude": -39.650, "Longitude": 286.914, "icone": "./icones/icones-visuais/CAVOK.png", "Informacao": "-39.650 286.914 SCVD 240600Z AUTO 31002KT CAVOK 04/04 Q1023"},
{"Latitude": -2.158, "Longitude": 280.116, "icone": "./icones/icones-visuais/BKN.png", "Informacao": "-2.158 280.116 SEGU 240600Z 25005KT 210V300 9999 FEW010 SCT023 BKN100 26/22 Q1012 NOSIG RMK A2989"},
{"Latitude": -0.907, "Longitude": 281.384, "icone": "./icones/icones-visuais/OVC.png", "Informacao": "-0.907 281.384 SELT 240600Z 14002KT 9999 BKN010 OVC100 10/09 Q1033"},
{"Latitude": -0.946, "Longitude": 279.322, "icone": "./icones/icones-visuais/BKN.png", "Informacao": "-0.946 279.322 SEMT 240600Z 20005KT 9999 BKN020 SCT100 26/23 Q1013 RMK A2993"},
{"Latitude": 4.701, "Longitude": 285.853, "icone": "./icones/icones-visuais/SCT.png", "Informacao": "4.701 285.853 SKBO 240600Z 32006KT 9000 FEW015 SCT070 13/11 A3037"},
{"Latitude": 10.889, "Longitude": 285.219, "icone": "./icones/icones-visuais/FEW.png", "Informacao": "10.889 285.219 SKBQ 240600Z 01007KT 9999 FEW015 26/23 A2987"},
{"Latitude": 10.442, "Longitude": 284.487, "icone": "./icones/icones-visuais/FEW.png", "Informacao": "10.442 284.487 SKCG 240600Z 02007KT 360V080 9999 FEW017 26/24 A2987"},
{"Latitude": 3.543, "Longitude": 283.619, "icone": "./icones/icones-visuais/BKN.png", "Informacao": "3.543 283.619 SKCL 240600Z 11003KT 9999 FEW023 BKN100 21/19 A3003"},
{"Latitude": 6.164, "Longitude": 284.577, "icone": "./icones/icones-visuais/FG.png", "Informacao": "6.164 284.577 SKRG 240600Z 01003KT 6000 VCFG BKN010 15/15 A3034"},
{"Latitude": 12.583, "Longitude": 278.289, "icone": "./icones/icones-visuais/FEW.png", "Informacao": "12.583 278.289 SKSP 240600Z 04005KT 9999 FEW016 26/22 A3001"},
{"Latitude": -17.421, "Longitude": 293.823, "icone": "./icones/icones-visuais/CAVOK.png", "Informacao": "-17.421 293.823 SLC.B 240600Z 16003KT 9999 NSC 15/07 Q1025"},
{"Latitude": -16.513, "Longitude": 291.808, "icone": "./icones/icones-visuais/FG.png", "Informacao": "-16.513 291.808 SLLP 240600Z 08006KT 4000E VCFG FEW004 05/04 Q1038"},
{"Latitude": -17.645, "Longitude": 296.865, "icone": "./icones/icones-visuais/BKN.png", "Informacao": "-17.645 296.865 SLVR 240600Z 27003KT 9999 BKN070 24/22 Q1014"},
{"Latitude": 5.453, "Longitude": 304.812, "icone": "./icones/icones-visuais/FEW.png", "Informacao": "5.453 304.812 SMJP 240600Z VRB01KT 9999 FEW030 24/23 Q1013 NOSIG"},
{"Latitude": 4.820, "Longitude": 307.640, "icone": "./icones/icones-visuais/FEW.png", "Informacao": "4.820 307.640 SOCA 240600Z AUTO 05007KT 9999 FEW020 26/23 Q1012"},
{"Latitude": -8.378, "Longitude": 285.426, "icone": "./icones/icones-visuais/BKN.png", "Informacao": "-8.378 285.426 SPCL 240600Z 00000KT 9999 SCT025 BKN070 24/23 Q1014 RMK PP000"},
{"Latitude": -6.787, "Longitude": 280.172, "icone": "./icones/icones-visuais/CAVOK.png", "Informacao": "-6.787 280.172 SPHI 240600Z 18009KT CAVOK 21/18 Q1013 RMK PP000"},
{"Latitude": -3.785, "Longitude": 286.691, "icone": "./icones/icones-visuais/CAVOK.png", "Informacao": "-3.785 286.691 SPQT 240600Z 00000KT CAVOK 25/24 Q1013 NOSIG RMK PP000"},
{"Latitude": -16.341, "Longitude": 288.417, "icone": "./icones/icones-visuais/CAVOK.png", "Informacao": "-16.341 288.417 SPQU 240600Z 00000KT CAVOK 12/07 Q1028 RMK PP000"},
{"Latitude": -8.085, "Longitude": 280.891, "icone": "./icones/icones-visuais/FEW.png", "Informacao": "-8.085 280.891 SPRU 240600Z 13005KT 9999 FEW150 20/18 Q1013 RMK PP000"},
{"Latitude": -13.745, "Longitude": 283.780, "icone": "./icones/icones-visuais/CAVOK.png", "Informacao": "-13.745 283.780 SPSO 240600Z 21006KT CAVOK 21/18 Q1013 RMK PP000"},
{"Latitude": -18.053, "Longitude": 289.724, "icone": "./icones/icones-visuais/CAVOK.png", "Informacao": "-18.053 289.724 SPTN 240600Z VRB02KT CAVOK 17/12 Q1016 RMK PP000"},
{"Latitude": -13.536, "Longitude": 288.061, "icone": "./icones/icones-visuais/RA.png", "Informacao": "-13.536 288.061 SPZO 240600Z VRB01KT 9000 -RA VCSH FEW036 SCT040 OVC060 10/07 Q1035 RMK PP016"},
{"Latitude": -34.855, "Longitude": 304.906, "icone": "./icones/icones-visuais/CAVOK.png", "Informacao": "-34.855 304.906 SULS 240600Z 35006KT CAVOK 16/13 Q1012"},
{"Latitude": -34.838, "Longitude": 303.970, "icone": "./icones/icones-visuais/CAVOK.png", "Informacao": "-34.838 303.970 SUMU 240600Z 36007KT CAVOK 16/12 Q1011 NOSIG"},
{"Latitude": 10.913, "Longitude": 296.034, "icone": "./icones/icones-visuais/FEW.png", "Informacao": "10.913 296.034 SVMG 240600Z /////KT 9999 FEW010 24/24 Q1014 NOSIG"} 
]