SAAR 092000Z 18011KT 9999 FEW022 BKN100 16/13 Q1009
-31.68 295.79 SACO 092000Z 11003KT 9999 SCT025 20/12 Q1012
-34.82 301.49 SAEZ 092000Z 19002KT 9999 BKN019 16/13 Q1010
-32.82 291.24 SAME 092000Z 14003KT 9999 SCT045 15/04Q1013
-26.85 294.92 SANT 092000Z 23003KT 9000 FEW040 22/15 Q1009
-33.12 295.74 SAOC 092000Z 18018KT CAVOK 17/03 Q1012
-27.43 300.97 SARE 092000Z 36008KT 300V020 CAVOK 29/21 Q1007
-24.85 294.54 SASA 092000Z 07007KT 9999 FEW025 24/14 Q1010
-37.92 302.44 SAZM 092000Z 36005KT 9999 SCT020 BKN070 13/07 Q1010
-31.35 305.88 SBBG 092000Z 31007KT 4000 -RA BR OVC025 19/18 Q1009
-25.00 306.50 SBCA 092000Z 02012KT 9999 FEW025 25/16 Q1017
-27.13 307.35 SBCH 092000Z 35014KT CAVOK 26/13 Q1015
-28.72 310.58 SBCM 092025Z 03003KT CAVOK 27/18 Q1011
-25.42 310.73 SBCT 092000Z 31006KT 9999 FEW025 22/10 Q1019
-29.20 308.82 SBCX 092000Z 36004KT CAVOK 23/16 Q1015
-25.54 305.42 SBFI 092000Z 35006KT CAVOK 27/15 Q1013
-27.59 311.46 SBFL 092000Z 01006KT CAVOK 28/18 Q1012
-26.22 311.22 SBJV 092000Z 11002KT CAVOK 26/22 Q1013
-30.03 308.77 SBPA 092000Z 31004KT CAVOK 29/16 Q1009
-25.25 307.60 SBPF 092000Z 35011KT CAVOK 22/13 Q1015
-31.87 307.65 SBPK 092000Z 32002KT 5000 -RA FEW040 BKN090 19/19 Q1010
-29.68 306.20 SBSM 092000Z 32004KT CAVOK 28/18 Q1009
-29.78 302.88 SBUG 092000Z 36005KT CAVOK 26/21 Q1008
-25.25 302.48 SGAS 092000Z 05005KT 9999 FEW033 SCT080 29/19 Q1009
-33.35 303.50 SUDU 092000Z METAR SUSO 092000Z 00000KT 9999 SCT013 OVC067 20/19 Q1008
-34.87 304.90 SULS 092000Z 05004KT 4000 -DZ OVC007 14/13 Q1009
-34.82 304.00 SUMU 092000Z 13003KT 1200 R24/1900 R19/P2000 -DZBR OVC004 15/14 Q1009 NOSIG
