-32.903 299.216 SAAR 261000Z 18006KT CAVOK 09/08 Q1023
-34.559 301.584 SABE 261000Z 17007KT 120V230 CAVOK 13/10 Q1023 NOSIG
-31.324 295.792 SACO 261000Z 26002KT 7000 SCT030 SCT100 13/13 Q1023 NOSIG
-34.453 301.411 SADF 261000Z 18003KT CAVOK 12/10 Q1024
-32.832 291.207 SAME 261000Z 18004KT CAVOK 13/09 Q1023
-26.841 294.895 SANT 261000Z 17005KT 2500 -DZ BR BKN003 OVC035 14/13 Q1022
-33.086 295.739 SAOC 261000Z 00000KT 9999 SCT030 BKN100 11/09 Q1024
-27.445 301.238 SARC 261000Z 14010KT CAVOK 16/12 Q1019
-26.213 301.772 SARF 261000Z 16010KT CAVOK 19/13 Q1017
-25.738 305.527 SARI 261000Z 23002KT CAVOK 16/14 Q1016
-29.689 302.848 SARL 261000Z 14003KT CAVOK 14/12 Q1020
-24.856 294.514 SASA 261000Z 36006KT 5000 -RA FEW008 SCT015 OVC035 15/14 Q1021
-24.393 294.902 SASJ 261000Z 18009KT 3000 -RA FEW007 SCT020 OVC050 16/15 Q1020 RETSRA
-45.785 292.534 SAVC 261000Z 00000KT CAVOK 08/07 Q1024
-53.778 292.251 SAWE 261000Z 29012KT 9999 FEW020 07/05 Q1014 REDZ
-51.609 290.688 SAWG 261000Z 31008KT 9999 FEW035 SCT100 BKN200 08/01 Q1018
-54.843 291.704 SAWH 261000Z 14005KT 9999 -RA BKN025 BKN050 07/04 Q1010
-37.934 302.427 SAZM 261000Z 20005KT 9999 FEW025 10/09 Q1026
-38.949 291.844 SAZN 261000Z 09002KT CAVOK 10/05 Q1025
-41.151 288.843 SAZS 261000Z 18006KT 9999 FEW033 04/01 Q1024
-22.875 316.616 SBAF 261000Z 28003KT 9999 FEW015 25/23 Q1014
-10.984 322.930 SBAR 261000Z 31004KT 9999 -RA SCT012 BKN017 26/23 Q1012
-1.379 311.524 SBBE 261000Z 15002KT 9999 FEW010 BKN100 24/23 Q1011
-19.852 316.050 SBBH 261000Z 09002KT CAVOK 21/17 Q1018
-25.405 310.768 SBBI 261000Z 11005KT 4000 -DZ OVC004 18/18 Q1020
-21.267 316.239 SBBQ 261000Z 12003KT 0500 FG BKN002 16/15 Q1022
-15.863 312.088 SBB.R 261000Z 07004KT 9999 4500NW -RA BKN009 FEW030TCU BKN070 20 /19 Q1018 RERA
-22.345 310.946 SBBU 261000Z 10007KT CAVOK 22/19 Q1017
2.846 299.310 SBBV 261000Z 09010KT CAVOK 26/19 Q1010
-19.634 316.031 SBCF 261000Z 15003KT CAVOK 19/17 Q1019
-20.469 305.328 SBCG 261000Z 14006KT CAVOK 19/17 Q1015
-27.134 307.344 SBCH 261000Z 10004KT CAVOK 14/12 Q1018
-7.320 312.541 SBCI 261000Z 09002KT 5000 -RA BR SCT006 BKN036 OVC070 23/23 Q1013
-29.946 308.856 SBCO 261000Z 00000KT CAVOK 13/12 Q1019
-21.698 318.698 SBCP 261000Z 00000KT CAVOK 23/22 Q1014
-19.012 302.327 SBCR 261000Z 15004KT CAVOK 26/18 Q1011
-25.528 310.824 SBCT 261000Z 11007KT 4000 -DZ BR SCT003 OVC005 17/17 Q1020
-15.653 303.883 SBCY 261000Z 22002KT CAVOK 27/25 Q1010
-22.175 308.576 SBDN 261000Z 03003KT CAVOK 20/15 Q1014
-3.039 299.950 SBEG 261000Z 06005KT CAVOK 24/23 Q1010
-25.596 305.513 SBFI 261000Z 21002KT CAVOK 15/14 Q1016
-27.673 311.452 SBFL 261000Z 20005KT 9999 BKN030 22/16 Q1017
-3.855 327.577 SBFN 261000Z VRB02KT 9999 FEW012 BKN020 27/25 Q1013
-3.776 321.468 SBFZ 261000Z 26003KT 200V290 9000 FEW023 FEW027TCU 25/24 Q1011
-22.809 316.756 SBGL 261000Z 11002KT 9999 FEW007 BKN010 25/23 Q1014
-16.631 310.778 SBGO 261000Z 15005KT CAVOK 22/20 Q1015
-23.432 313.531 SBG.R 261000Z 14002KT 8000 NSC 17/17 Q1018
-14.816 320.967 SBIL 261000Z 23004KT 9999 VCSH FEW020 FEW025TCU BKN070 26/25 Q1013
-19.471 317.513 SBIP 261000Z 24003KT CAVOK 20/19 Q1015
-5.531 312.540 SBIZ 261000Z 03002KT 9999 -RA FEW008 SCT040 OVC080 24/24 Q1012
-7.270 324.104 SBJP 261000Z 21008KT 9999 SCT035 26/24 Q1012
-26.225 311.203 SBJV 261000Z 24003KT 9999 SCT006 BKN010 OVC020 21/20 Q1017
-23.008 312.866 SBKP 261000Z 13010KT CAVOK 20/15 Q1016
-23.334 308.870 SBLO 261000Z 00000KT CAVOK 21/17 Q1016
-19.661 316.104 SBLS 261000Z 18007KT CAVOK 18/16 Q1018
-5.368 310.862 SBMA 261000Z 05003KT 8000 -RA SCT006 OVC080 24/24 Q1012
-23.440 308.093 SBMG 261000Z 12009KT CAVOK 20/17 Q1014
-16.707 316.181 SBMK 261000Z 00000KT 9999 FEW008 OVC100 23/21 Q1017
-3.146 300.014 SBMN 261000Z 05004KT 9999 SCT010 BKN100 25/24 Q1010
-9.510 324.207 SBMO 261000Z 26005KT 9999 SCT017 25/22 Q1013
0.051 308.928 SBMQ 261000Z 34006KT 5000 2000W -RA BR SCT006 BKN020 OVC070 25/ 25 Q1012
-23.509 313.363 SBMT 261000Z 11004KT CAVOK 19/15 Q1018
-26.880 311.349 SBNF 261000Z 21004KT 9999 FEW015 BKN040 22/18 Q1017
-5.911 324.752 SBNT 261000Z 18006KT 9999 FEW033 27/24 Q1011
-2.894 318.268 SBPB 261015Z 06002KT 9999 SCT017 26/22 Q1011
-31.718 307.673 SBPK 261015Z 26008KT 9999 OVC006 16/16 Q1019
-9.364 319.436 SBP.L 261000Z 16005KT 9999 FEW027 25/23 Q1014
-8.709 296.098 SBPV 261000Z 20003KT 9999 SCT008 24/23 Q1010
-14.863 319.137 SBQV 261000Z 10006KT 9999 BKN006 20/19 Q1019
-9.869 292.106 SB.RB 261000Z 22003KT 0800 FG SCT002 23/23 Q1011
-8.126 325.077 SB.RF 261000Z 20003KT 130V230 9999 SCT021 FEW025TCU 26/24 Q1011
-22.910 316.837 SB.RJ 261000Z 02004KT 9999 FEW015 26/24 Q1014
-21.134 312.226 SB.RP 261000Z 11006KT CAVOK 20/18 Q1015
-22.932 316.281 SBSC 261000Z 03003KT CAVOK 26/22 Q1014
-23.229 314.139 SBSJ 261000Z 00000KT 9000 FEW015 19/18 Q1018
-2.589 315.764 SBSL 261000Z 13003KT 9999 FEW017 BKN100 25/24 Q1011
-29.711 306.312 SBSM 261000Z 00000KT CAVOK 11/10 Q1019
-23.627 313.345 SBSP 261000Z 16003KT CAVOK 19/16 Q1019
-20.816 310.594 SBSR 261000Z 00000KT CAVOK 23/18 Q1015
-12.911 321.669 SBSV 261000Z VRB01KT 9999 SCT017 BKN060 27/25 Q1013
-5.060 317.177 SBTE 261000Z 36003KT 9999 BKN006 25/23 Q1012
-3.785 310.281 SBTU 261000Z /////KT 0000 -RA FG VV000 ///// Q1014
-29.782 302.962 SBUG 261000Z 17004KT CAVOK 13/11 Q1020
-18.883 311.774 SBUL 261000Z 10007KT CAVOK 21/17 Q1018
-19.765 312.035 SBUR 261000Z 07005KT CAVOK 22/16 Q1017
-20.256 319.711 SBVT 261000Z 24003KT CAVOK 25/20 Q1013
-21.985 312.662 SBYS 261000Z 15003KT 9999 0800E R02/P2000 R20/P2000 PRFG NSC 16/16 Q1017
-18.348 289.661 SCAR 261000Z 08003KT CAVOK 18/11 Q1010
-45.916 288.311 SC.BA 261000Z AUTO 07002KT CAVOK M02/M04 Q1023
-22.499 291.096 SCCF 261000Z 13015KT CAVOK 10/01 Q1023
-53.003 289.145 SCCI 261000Z 28022KT 9999 FEW040 BKN100 10/04 Q1014 NOSIG
-20.535 289.819 SCDA 261000Z VRB02KT CAVOK 19/13 Q1010
-33.393 289.214 SCEL 261000Z 01001KT CAVOK 10/07 Q1012 NOSIG
-23.444 289.555 SCFA 261000Z 04001KT 9999 FEW012 16/13 Q1011 NOSIG
-36.773 286.937 SCIE 261000Z 06002KT CAVOK 08/08 Q1012
-27.165 250.578 SCIP 261000Z 00000KT 9999 FEW025 SCT050 22/19 Q1021 NOSIG
-62.191 301.013 SCRM 261000Z 26010KT 8000 3000E BR FEW003 SCT014 OVC021 01/00 Q0995 NOSIG
-29.916 288.809 SCSE 261000Z 32005KT 9999 OVC008 13/12 Q1012
-33.657 288.384 SCS.N 261000Z AUTO VRB02KT 9999 OVC005 11/10 Q1013
-41.439 286.906 SCT.E 261000Z 00000KT 2500 BR OVC004 06/05 Q1018 NOSIG
-42.933 287.301 SCT.N 261000Z AUTO VRB03KT //// R/////// // NCD 04/04 Q1019
-39.650 286.914 SCVD 261000Z AUTO 00000KT 0650 R35/0750V1000 FG ///////// 01/01 Q1017
-2.158 280.116 SEGU 261000Z 32002KT 9999 BKN026 SCT100 26/23 Q1008 NOSIG RMK A2976
-0.907 281.384 SELT 261000Z 00000KT 9999 SCT013 BKN030 12/11 Q1028
-0.946 279.322 SEMT 261000Z 21004KT 9999 BKN020 23/21 Q1009 RMK A2981
-25.240 302.481 SGAS 261000Z 15004KT CAVOK 19/17 Q1016
10.889 285.219 SKBQ 261000Z 01004KT 9999 FEW015 25/23 A2977
7.928 287.489 SKCC 261000Z VRB02KT 7000 SCT015 BKN070 25/23 A2991 RMK HZ
10.442 284.487 SKCG 261000Z 02008KT 350V050 9999 BKN015 26/23 A2977
3.543 283.619 SKCL 261000Z 04005KT 9999 FEW040 SCT120 20/19 A2994
4.813 284.261 SKPE 261000Z 09007KT 9999 SCT013 SCT070 19/17 A3000
6.164 284.577 SKRG 261000Z VRB02KT 3000 BR BKN007 SCT070 15/15 A3024
12.583 278.289 SKSP 261000Z 05008KT 9999 FEW016 26/22 A2989
-20.007 296.473 SLCA 261000Z 00000KT 9999 BKN010 OVC070 20/19 Q1019
-17.421 293.823 SLC.B 261000Z 30003KT 6000 -RA FEW010 SCT025 OVC070 13/10 Q1026
-11.040 291.217 SLCO 261000Z 00000KT 9999 FEW003 BKN080 23/23 Q1011
-16.143 297.974 SLCP 261000Z 00000KT 9999 BKN070 22/22 Q1014
-13.053 295.338 SLJO 261000Z 18004KT 9999 SCT015 BKN080 25/24 Q1010
-16.513 291.808 SLLP 261000Z 09003KT 4000E VCFG FEW002 SCT012 BKN070 05/04Q1036
-13.254 295.937 SLMG 261000Z 00000KT 9999 FEW012 BKN080 25/24 Q1010
-19.543 294.276 SLPO 261000Z 00000KT 9999 SCT012 05/05 Q1038
-18.975 302.179 SLPS 261000Z 00000KT 9999 BKN070 23/21 Q1011
-11.010 293.927 SLRI 261000Z 00000KT 8000 VCSH SCT004 BKN020 OVC070 23/23 Q1011
-14.428 292.499 SLRQ 261000Z 00000KT 9999 FEW006 BKN070 24/24 Q1010
-14.306 292.646 SLRY 261000Z 00000KT 9999 SCT025 BKN070 23/23 Q1010
-13.762 294.565 SLSA 261000Z 00000KT 9999 FEW020 SCT080 BKN200 25/24 Q1011
-16.384 299.037 SLSI 261000Z 00000KT 9999 BKN070 22/21 Q1012
-21.556 295.299 SLTJ 261000Z 00000KT 9999 SCT020 BKN070 15/14 Q1022
-14.819 295.082 SLTR 261000Z 00000KT 5000 BR FEW005 BKN080 24/24 Q1011
-17.645 296.865 SLVR 261000Z 19009KT 9999 SCT023 BKN070 23/22 Q1013
5.453 304.812 SMJP 261000Z VRB01KT CAVOK 22/21 Q1012 NOSIG
5.811 304.809 SMZO 261000Z 00000KT 9999 FEW010 SCT035 25/23 Q1011 NOSIG
4.820 307.640 SOCA 261000Z AUTO 00000KT 9999 FEW036 23/21 Q1012 NOSIG
-8.378 285.426 SPCL 261000Z 24002KT 9999 BKN015 BKN070 24/24 Q1010 RMK PP000
-6.787 280.172 SPHI 261000Z 17004KT 9999 FEW050 20/18 Q1009 RMK PP000
-13.155 285.796 SPHO 261000Z 00000KT 9999 BKN080 14/11 Q1025 RMK PP000
-13.706 286.650 SPHY 261000Z /////KT 6000 2000NE BCFG SCT010 OVC040 08/07 Q1033 RMK BIRD HAZARD RWY03/21 RA NOCHE PP042
-3.785 286.691 SPQT 261000Z 00000KT 9999 FEW020 24/23 Q1008 NOSIG RMK PP000
-16.341 288.417 SPQU 261000Z 01006KT CAVOK 11/04 Q1024 RMK PP000
-8.085 280.891 SPRU 261000Z 13005KT 8000 NSC 19/18 Q1009 RMK BR PP000
-13.745 283.780 SPSO 261000Z 13003KT 100V170 5000 FU NSC 18/16 Q1009 RMK PP000
-18.053 289.724 SPTN 261000Z 04003KT CAVOK 17/12 Q1012 RMK PP000
-13.536 288.061 SPZO 261000Z 09002KT 9000 -DZ FEW020 SCT036 OVC080 10/08 Q1032 RMK CLNG BLW 1200M BIRD HAZARD RWY 28 PPTRZ
-34.789 303.736 SUAA 261000Z 14006KT 9999 FEW016 SCT070 15/13 Q1021
-33.359 303.501 SUDU 261000Z 17006KT 7000 FWE017 SCT200 11/11 Q1022
-34.855 304.906 SULS 261000Z 16008KT 6000 RA BKN010 15/13 Q1021
-34.838 303.970 SUMU 261000Z 14008KT 9999 FEW023 BKN070 17/12 Q1022 TEMPO RADZ
-31.440 302.009 SUSO 261000Z 16007KT 8000 FEW023 SCT080 12/11 Q1021
10.913 296.034 SVMG 261000Z /////KT 9999 FEW010 25/24 Q1013 NOSIG
